,Unnamed: 0,name,address,description,longitude,latitude
0,0,Гостиничный Комплекс 55 Широта,"улица Дениса Давыдова, д.1/3, Новосибирск","Гостиничный Комплекс 55 Широта по адресу улица Дениса Давыдова, д.1/3, Новосибирск. Минимальная стоимость в отеле 'Гостиничный Комплекс 55 Широта' за ночь: от 3000₽",82.961833,55.070046
1,1,AHOTELS Design Style Толстого,"Улица Толстого, д.56, Новосибирск","AHOTELS Design Style Толстого по адресу Улица Толстого, д.56, Новосибирск. Минимальная стоимость в отеле 'AHOTELS Design Style Толстого' за ночь: от 2614₽",82.941908,55.020255
2,2,Апарт-отель Apartel,"Железнодорожная улица, д.15/1, Новосибирск","Апарт-отель Apartel по адресу Железнодорожная улица, д.15/1, Новосибирск. Минимальная стоимость в отеле 'Апарт-отель Apartel' за ночь: от 2721₽",82.904925,55.047028
3,3,Гостиница Комфорт_Нск,"Улица Богдана Хмельницкого, д.96, Новосибирск","Гостиница Комфорт_Нск по адресу Улица Богдана Хмельницкого, д.96, Новосибирск. Минимальная стоимость в отеле 'Гостиница Комфорт_Нск' за ночь: от 4150₽",82.979242,55.094678
4,4,Отель ESENIN-LocuS,"улица Есенина, д.5/1, Новосибирск","Отель ESENIN-LocuS по адресу улица Есенина, д.5/1, Новосибирск. Минимальная стоимость в отеле 'Отель ESENIN-LocuS' за ночь: от 2700₽",82.994927,55.050901
5,5,Отель Глобус,"улица Лермонтова, д. 43, корп. 1, Новосибирск","Отель Глобус по адресу улица Лермонтова, д. 43, корп. 1, Новосибирск. Минимальная стоимость в отеле 'Отель Глобус' за ночь: от 3506₽",82.92511,55.045434
6,6,Хостел Рус-Новосибирск,"улица Куприна, д.8/1, Новосибирск","Хостел Рус-Новосибирск по адресу улица Куприна, д.8/1, Новосибирск. Минимальная стоимость в отеле 'Хостел Рус-Новосибирск' за ночь: от 1677₽",82.990606,55.043634
7,7,Отель Император,"улица Романова, д.99, Новосибирск","Отель Император по адресу улица Романова, д.99, Новосибирск. Минимальная стоимость в отеле 'Отель Император' за ночь: от 2814₽",82.942771,55.037128
8,8,Отель Клуб Путешественников,"улица Фрунзе 2А, Новосибирск","Отель Клуб Путешественников по адресу улица Фрунзе 2А, Новосибирск. Минимальная стоимость в отеле 'Отель Клуб Путешественников' за ночь: от 2152₽",82.916747,55.035828
9,9,No Bears (Ноу Беарс),"ул. Дмитрия Шамшурина, 1, Новосибирск","No Bears (Ноу Беарс) по адресу ул. Дмитрия Шамшурина, 1, Новосибирск. Минимальная стоимость в отеле 'No Bears (Ноу Беарс)' за ночь: от 2260₽",82.903748,55.028682
10,10,Апарт-Отель OAZIS APART,"улица Лескова, д.25, Новосибирск","Апарт-Отель OAZIS APART по адресу улица Лескова, д.25, Новосибирск. Минимальная стоимость в отеле 'Апарт-Отель OAZIS APART' за ночь: от 2950₽",82.953461,55.025338
11,11,Отель Метелица,"улица Добролюбова, д.195, Новосибирск","Отель Метелица по адресу улица Добролюбова, д.195, Новосибирск. Минимальная стоимость в отеле 'Отель Метелица' за ночь: от 5750₽",82.978003,55.028816
12,12,Отель Перекресток,"Фабричная улица, 4/1, Новосибирск","Отель Перекресток по адресу Фабричная улица, 4/1, Новосибирск. Минимальная стоимость в отеле 'Отель Перекресток' за ночь: от 3322₽",82.922577,55.015692
13,13,Апарт-Отель Ramada hotel&suites by Wyndham Novosibirsk Zhukovka,"улица Победы, д.55, Новосибирск","Апарт-Отель Ramada hotel&suites by Wyndham Novosibirsk Zhukovka по адресу улица Победы, д.55, Новосибирск. Минимальная стоимость в отеле 'Апарт-Отель Ramada hotel&suites by Wyndham Novosibirsk Zhukovka' за ночь: от 5351₽",82.878748,55.067654
14,14,Отель Tolstogo City,"улица Толстого, д.77, Новосибирск","Отель Tolstogo City по адресу улица Толстого, д.77, Новосибирск. Минимальная стоимость в отеле 'Отель Tolstogo City' за ночь: от 3400₽",82.947101,55.019155
15,15,Аврора,"ул. Панфиловцев, д. 53, Новосибирск","Аврора по адресу ул. Панфиловцев, д. 53, Новосибирск. Минимальная стоимость в отеле 'Аврора' за ночь: от 2396₽",82.988252,55.02058
16,16,Мини-отель ЕВРОСАУНА,"улица Мира, д.63А, корп.4, Новосибирск","Мини-отель ЕВРОСАУНА по адресу улица Мира, д.63А, корп.4, Новосибирск. Минимальная стоимость в отеле 'Мини-отель ЕВРОСАУНА' за ночь: от 2476₽",82.92484,54.964391
17,17,Лель,"ул. Кутузова, д.69, Карасук","Лель по адресу ул. Кутузова, д.69, Карасук. Минимальная стоимость в отеле 'Лель' за ночь: от 1600₽",78.058002,53.729809
18,18,Мини-отель Мадо,"улица Светлановская, д. 8, Новосибирск","Мини-отель Мадо по адресу улица Светлановская, д. 8, Новосибирск. Минимальная стоимость в отеле 'Мини-отель Мадо' за ночь: от 2627₽",82.914779,55.072443
19,19,Диван и чемодан на Ленина,"ул. Ленина, 79, Новосибирск","Диван и чемодан на Ленина по адресу ул. Ленина, 79, Новосибирск. Минимальная стоимость в отеле 'Диван и чемодан на Ленина' за ночь: от 2051₽",82.895277,55.038975
20,20,Отель Хлебный год,"Советское шоссе, д.7, Новосибирск","Отель Хлебный год по адресу Советское шоссе, д.7, Новосибирск. Минимальная стоимость в отеле 'Отель Хлебный год' за ночь: от 4282₽",82.952571,54.922446
21,21,Гостевой Дом Маяк,"улица Плотинная, д.1/1, Новосибирск","Гостевой Дом Маяк по адресу улица Плотинная, д.1/1, Новосибирск. Минимальная стоимость в отеле 'Гостевой Дом Маяк' за ночь: от 4145₽",83.038405,54.841812
22,22,Гостиница Золотое Руно,"улица Зыряновская, д.55, Новосибирск","Гостиница Золотое Руно по адресу улица Зыряновская, д.55, Новосибирск. Минимальная стоимость в отеле 'Гостиница Золотое Руно' за ночь: от 4510₽",82.93748,55.011717
23,23,Мини-отель Роял Марин,"микрорайон Северный, д.1/1, Бердск","Мини-отель Роял Марин по адресу микрорайон Северный, д.1/1, Бердск. Минимальная стоимость в отеле 'Мини-отель Роял Марин' за ночь: от 3466₽",83.095862,54.774203
24,24,Квартиры Sibkvart Добролюбова 18/1,"улица Добролюбова, д.18/1, Новосибирск","Квартиры Sibkvart Добролюбова 18/1 по адресу улица Добролюбова, д.18/1, Новосибирск. Минимальная стоимость в отеле 'Квартиры Sibkvart Добролюбова 18/1' за ночь: от 3341₽",82.952895,55.009967
25,25,Хостел Why not Hostel Novosibirsk,"Вокзальная магистраль, д. 6, Новосибирск","Хостел Why not Hostel Novosibirsk по адресу Вокзальная магистраль, д. 6, Новосибирск. Минимальная стоимость в отеле 'Хостел Why not Hostel Novosibirsk' за ночь: от 1961₽",82.904925,55.033476
26,26,Отель Акватория,"Улица Ватутина, д. 16/1, Новосибирск","Отель Акватория по адресу Улица Ватутина, д. 16/1, Новосибирск. Минимальная стоимость в отеле 'Отель Акватория' за ночь: от 2192₽",82.886743,54.987291
27,27,Отель Авеню,"улица Советская, д.57, Новосибирск","Отель Авеню по адресу улица Советская, д.57, Новосибирск. Минимальная стоимость в отеле 'Отель Авеню' за ночь: от 2327₽",82.913935,55.033481
28,28,Хостел City,"улица Блюхера, д.24, Новосибирск","Хостел City по адресу улица Блюхера, д.24, Новосибирск. Минимальная стоимость в отеле 'Хостел City' за ночь: от 1300₽",82.897567,54.987957
29,29,Отель Домина Новосибирск,"улица Ленина, д.26, Новосибирск","Отель Домина Новосибирск по адресу улица Ленина, д.26, Новосибирск. Минимальная стоимость в отеле 'Отель Домина Новосибирск' за ночь: от 7100₽",82.90691,55.029368
30,30,Апарт-отель Гостиниц net (Ядринцевская),"ул. Ядринцевская 71, Новосибирск, Новосибирск","Апарт-отель Гостиниц net (Ядринцевская) по адресу ул. Ядринцевская 71, Новосибирск, Новосибирск. Минимальная стоимость в отеле 'Апарт-отель Гостиниц net (Ядринцевская)' за ночь: от 3010₽",82.935045,55.034879
31,31,Отель Колибри,"Улица Чаплыгина, д.111, Новосибирск","Отель Колибри по адресу Улица Чаплыгина, д.111, Новосибирск. Минимальная стоимость в отеле 'Отель Колибри' за ночь: от 4330₽",82.931551,55.027134
32,32,Мини-Отель на Артиллерийской,"улица Артиллерийская, д.97, Новосибирск","Мини-Отель на Артиллерийской по адресу улица Артиллерийская, д.97, Новосибирск. Минимальная стоимость в отеле 'Мини-Отель на Артиллерийской' за ночь: от 2600₽",82.964115,55.023774
33,33,Апарт-отель Неорелакс Апарт,"улица Чаплыгина 48, Новосибирск","Апарт-отель Неорелакс Апарт по адресу улица Чаплыгина 48, Новосибирск. Минимальная стоимость в отеле 'Апарт-отель Неорелакс Апарт' за ночь: от 1732₽",82.91963,55.025493
34,34,Отель Happy Family,"улица Артиллерийская, д.19, Новосибирск","Отель Happy Family по адресу улица Артиллерийская, д.19, Новосибирск. Минимальная стоимость в отеле 'Отель Happy Family' за ночь: от 3406₽",82.95788,55.026076
35,35,Отель Сити Отель,"улица Блюхера, д. 77, Новосибирск","Отель Сити Отель по адресу улица Блюхера, д. 77, Новосибирск. Минимальная стоимость в отеле 'Отель Сити Отель' за ночь: от 3342₽",82.904781,54.993654
36,36,Отель Park Wood Академгородок,"улица Арбузова, д.6/2, Новосибирск","Отель Park Wood Академгородок по адресу улица Арбузова, д.6/2, Новосибирск. Минимальная стоимость в отеле 'Отель Park Wood Академгородок' за ночь: от 5773₽",83.104997,54.869186
37,37,Хостел «Планета»,"ул. Владимировская, 4, Новосибирск","Хостел «Планета» по адресу ул. Владимировская, 4, Новосибирск. Минимальная стоимость в отеле 'Хостел «Планета»' за ночь: от 2260₽",82.892528,55.032542
38,38,Хостел Роял,"улица Дуси Ковальчук, д.260/2, Новосибирск","Хостел Роял по адресу улица Дуси Ковальчук, д.260/2, Новосибирск. Минимальная стоимость в отеле 'Хостел Роял' за ночь: от 1386₽",82.910602,55.057115
39,39,Гостевой Дом Sky Lounge guesthouse,"улица Кропоткина 273, Новосибирск","Гостевой Дом Sky Lounge guesthouse по адресу улица Кропоткина 273, Новосибирск. Минимальная стоимость в отеле 'Гостевой Дом Sky Lounge guesthouse' за ночь: от 2366₽",82.936168,55.059044
40,40,Хостел Sunny Day,"улица Урицкого, д.37, Новосибирск","Хостел Sunny Day по адресу улица Урицкого, д.37, Новосибирск. Минимальная стоимость в отеле 'Хостел Sunny Day' за ночь: от 2079₽",82.911842,55.03137
41,41,Отель Valeri,"Серебренниковская улица, д. 2/1, Новосибирск","Отель Valeri по адресу Серебренниковская улица, д. 2/1, Новосибирск. Минимальная стоимость в отеле 'Отель Valeri' за ночь: от 1893₽",82.928281,55.016992
42,42,Отель Золотая Долина,"улица Ильича, д.10, Новосибирск","Отель Золотая Долина по адресу улица Ильича, д.10, Новосибирск. Минимальная стоимость в отеле 'Отель Золотая Долина' за ночь: от 4101₽",83.093077,54.840993
43,43,Матросово,"ул. Береговая, дом 215, Искитим","Матросово по адресу ул. Береговая, дом 215, Искитим. Минимальная стоимость в отеле 'Матросово' за ночь: от 6783₽",83.336682,54.609062
44,44,Мини-отель Ной,"улица Карла Маркса, д.100, Барабинск","Мини-отель Ной по адресу улица Карла Маркса, д.100, Барабинск. Минимальная стоимость в отеле 'Мини-отель Ной' за ночь: от 3403₽",78.350188,55.350505
45,45,Хостел Плюшевый Мишка,"улица Разъездная, д.12, Новосибирск","Хостел Плюшевый Мишка по адресу улица Разъездная, д.12, Новосибирск. Минимальная стоимость в отеле 'Хостел Плюшевый Мишка' за ночь: от 2260₽",83.078353,54.87158
46,46,Жилое помещение на Немировича,"улица Немировича-Данченко, д. 146/1, Новосибирск","Жилое помещение на Немировича по адресу улица Немировича-Данченко, д. 146/1, Новосибирск. Минимальная стоимость в отеле 'Жилое помещение на Немировича' за ночь: от 2310₽",82.915408,54.990023
47,47,Room Apart (Рум Апарт) на улице Ясный берег,"ул. Ясный берег, 23, Новосибирск","Room Apart (Рум Апарт) на улице Ясный берег по адресу ул. Ясный берег, 23, Новосибирск. Минимальная стоимость в отеле 'Room Apart (Рум Апарт) на улице Ясный берег' за ночь: от 3062₽",82.895672,55.015459
48,48,Гостевой Дом,"Новосибирская обл, г Обь, ул Вокзальная, д. 90, Обь","Гостевой Дом по адресу Новосибирская обл, г Обь, ул Вокзальная, д. 90, Обь. Минимальная стоимость в отеле 'Гостевой Дом' за ночь: от 1782₽",82.723285,54.987746
49,49,"Гранд-отель, Новосибирск","ул. Забалуева, 5/1, Новосибирск","Гранд-отель, Новосибирск по адресу ул. Забалуева, 5/1, Новосибирск. Минимальная стоимость в отеле 'Гранд-отель, Новосибирск' за ночь: от 2778₽",82.834119,54.989538
50,50,Мини-отель Summer delight,"улица Дачная, д.40/2, Новосибирск","Мини-отель Summer delight по адресу улица Дачная, д.40/2, Новосибирск. Минимальная стоимость в отеле 'Мини-отель Summer delight' за ночь: от 2236₽",82.905086,55.061539
51,51,Лель Купино,"ул. Элеваторская, д 50, Купино","Лель Купино по адресу ул. Элеваторская, д 50, Купино. Минимальная стоимость в отеле 'Лель Купино' за ночь: от 1786₽",77.301252,54.35804
52,52,Солнечный,"ул. Софийская 15,А, Новосибирск","Солнечный по адресу ул. Софийская 15,А, Новосибирск. Минимальная стоимость в отеле 'Солнечный' за ночь: от 4700₽",82.96636,54.844839
53,53,Апарт-отель на Набережной,"улица Большевистская, д. 37, Новосибирск","Апарт-отель на Набережной по адресу улица Большевистская, д. 37, Новосибирск. Минимальная стоимость в отеле 'Апарт-отель на Набережной' за ночь: от 2958₽",82.932332,55.010504
54,54,Диван и чемодан на Серафимовича,"ул. Серафимовича, 1/4/, Новосибирск","Диван и чемодан на Серафимовича по адресу ул. Серафимовича, 1/4/, Новосибирск. Минимальная стоимость в отеле 'Диван и чемодан на Серафимовича' за ночь: от 1946₽",82.880535,54.983236
55,55,Yousinn (Юсинн) на улице Одоевского 1/11,"ул. Одоевского, 1/11, Новосибирск","Yousinn (Юсинн) на улице Одоевского 1/11 по адресу ул. Одоевского, 1/11, Новосибирск. Минимальная стоимость в отеле 'Yousinn (Юсинн) на улице Одоевского 1/11' за ночь: от 2388₽",83.101063,54.937148
56,56,Жилое помещение Светлица 54,"улица Крылова, д.69А, Новосибирск","Жилое помещение Светлица 54 по адресу улица Крылова, д.69А, Новосибирск. Минимальная стоимость в отеле 'Жилое помещение Светлица 54' за ночь: от 2506₽",82.939222,55.042339
57,57,Диван и чемодан на Галущака 17,"ул. Галущака, 17, Новосибирск","Диван и чемодан на Галущака 17 по адресу ул. Галущака, 17, Новосибирск. Минимальная стоимость в отеле 'Диван и чемодан на Галущака 17' за ночь: от 2190₽",82.90921,55.053964
58,58,Диван и чемодан на Коммунистической,"ул. Коммунистическая, 26, Новосибирск","Диван и чемодан на Коммунистической по адресу ул. Коммунистическая, 26, Новосибирск. Минимальная стоимость в отеле 'Диван и чемодан на Коммунистической' за ночь: от 2051₽",82.916279,55.022386
59,59,Yousinn (Юсинн) на улице Выборной 89/4,"ул. Выборная, 89/4, Новосибирск","Yousinn (Юсинн) на улице Выборной 89/4 по адресу ул. Выборная, 89/4, Новосибирск. Минимальная стоимость в отеле 'Yousinn (Юсинн) на улице Выборной 89/4' за ночь: от 3143₽",83.015265,55.001984
60,60,Парк-Отель Чкаловские дачи,"д.п. Мочище м-н дом отдыха Мочище 4, Новосибирск, Новосибирская обл., Россия, 630534, Новосибирск","Парк-Отель Чкаловские дачи по адресу д.п. Мочище м-н дом отдыха Мочище 4, Новосибирск, Новосибирская обл., Россия, 630534, Новосибирск. Минимальная стоимость в отеле 'Парк-Отель Чкаловские дачи' за ночь: от 5936₽",82.849373,55.150041
61,61,Диван и чемодан на Карла Маркса,"пр-кт Карла Маркса, 14/1, ст.1, Новосибирск","Диван и чемодан на Карла Маркса по адресу пр-кт Карла Маркса, 14/1, ст.1, Новосибирск. Минимальная стоимость в отеле 'Диван и чемодан на Карла Маркса' за ночь: от 1957₽",82.902338,54.985287
62,62,Хостел Атмосфера,"улица Залесского, 2/2, Новосибирск","Хостел Атмосфера по адресу улица Залесского, 2/2, Новосибирск. Минимальная стоимость в отеле 'Хостел Атмосфера' за ночь: от 2260₽",82.930706,55.067607
63,63,Квартиры Sibkvart Некрасова 41,"улица Некрасова, д.41, Новосибирск","Квартиры Sibkvart Некрасова 41 по адресу улица Некрасова, д.41, Новосибирск. Минимальная стоимость в отеле 'Квартиры Sibkvart Некрасова 41' за ночь: от 2830₽",82.927185,55.046197
64,64,В гости на улице Ленина 81,"ул. Ленина, 81, Новосибирск","В гости на улице Ленина 81 по адресу ул. Ленина, 81, Новосибирск. Минимальная стоимость в отеле 'В гости на улице Ленина 81' за ночь: от 3690₽",82.894639,55.039919
65,65,Welcome (Вэлком) на улице Иванова,"ул. Иванова, 8, Новосибирск","Welcome (Вэлком) на улице Иванова по адресу ул. Иванова, 8, Новосибирск. Минимальная стоимость в отеле 'Welcome (Вэлком) на улице Иванова' за ночь: от 3300₽",83.086259,54.865684
66,66,Мини-Отель Мира-ЛокуС,"улица Мира, 63Ак7, Новосибирск","Мини-Отель Мира-ЛокуС по адресу улица Мира, 63Ак7, Новосибирск. Минимальная стоимость в отеле 'Мини-Отель Мира-ЛокуС' за ночь: от 1770₽",82.924679,54.964551
67,67,Room Apart (Рум Апарт) на улице Дмитрия Шамшурина,"ул. Дмитрия Шамшурина, 29, Новосибирск","Room Apart (Рум Апарт) на улице Дмитрия Шамшурина по адресу ул. Дмитрия Шамшурина, 29, Новосибирск. Минимальная стоимость в отеле 'Room Apart (Рум Апарт) на улице Дмитрия Шамшурина' за ночь: от 3354₽",82.900532,55.031592
68,68,Авеню,"ул. Боровая 4/2, Бердск","Авеню по адресу ул. Боровая 4/2, Бердск. Минимальная стоимость в отеле 'Авеню' за ночь: от 3889₽",83.078991,54.762355
69,69,Хостел Bueno,"улица Максима Горького,д. 53, Новосибирск","Хостел Bueno по адресу улица Максима Горького,д. 53, Новосибирск. Минимальная стоимость в отеле 'Хостел Bueno' за ночь: от 1961₽",82.915866,55.027289
70,70,FlaNsk (ФлаНск) на Кошурникова,"ул. Кошурникова, 23, Новосибирск","FlaNsk (ФлаНск) на Кошурникова по адресу ул. Кошурникова, 23, Новосибирск. Минимальная стоимость в отеле 'FlaNsk (ФлаНск) на Кошурникова' за ночь: от 3416₽",82.970744,55.041431
71,71,Как дома. Левый берег на Карла Маркса,"пр. К.Маркса, 7, Новосибирск","Как дома. Левый берег на Карла Маркса по адресу пр. К.Маркса, 7, Новосибирск. Минимальная стоимость в отеле 'Как дома. Левый берег на Карла Маркса' за ночь: от 1860₽",82.897082,54.98507
72,72,Отель Нептун Татарск,"улица Закриевского, д. 72, Татарск","Отель Нептун Татарск по адресу улица Закриевского, д. 72, Татарск. Минимальная стоимость в отеле 'Отель Нептун Татарск' за ночь: от 1654₽",75.980028,55.219514
73,73,Барракуда на улице Тюленина,"Улица Тюленина 5, Новосибирск","Барракуда на улице Тюленина по адресу Улица Тюленина 5, Новосибирск. Минимальная стоимость в отеле 'Барракуда на улице Тюленина' за ночь: от 3900₽",82.952535,55.107231
74,74,Отель MAXROOMS Купино Сибирия,"улица Советов, д.80А, Купино","Отель MAXROOMS Купино Сибирия по адресу улица Советов, д.80А, Купино. Минимальная стоимость в отеле 'Отель MAXROOMS Купино Сибирия' за ночь: от 1946₽",77.293634,54.36305
75,75,Мини-отель Абажур,"Речкуновская зона отдыха, 6/9, Бердск","Мини-отель Абажур по адресу Речкуновская зона отдыха, 6/9, Бердск. Минимальная стоимость в отеле 'Мини-отель Абажур' за ночь: от 5887₽",83.10983,54.793184
76,76,Yousinn (Юсинн) на улице Ясный Берег,"ул. Ясный Берег, 35, Новосибирск","Yousinn (Юсинн) на улице Ясный Берег по адресу ул. Ясный Берег, 35, Новосибирск. Минимальная стоимость в отеле 'Yousinn (Юсинн) на улице Ясный Берег' за ночь: от 3495₽",82.899256,55.013875
77,77,АлАнт на улице Немировича-Данченко 122/4,"ул. Немировича-Данченко, 122/4, Новосибирск","АлАнт на улице Немировича-Данченко 122/4 по адресу ул. Немировича-Данченко, 122/4, Новосибирск. Минимальная стоимость в отеле 'АлАнт на улице Немировича-Данченко 122/4' за ночь: от 4000₽",82.914707,54.978028
78,78,Жилое Помещение Бородина 56,"улица Бородина, д. 56, Новосибирск","Жилое Помещение Бородина 56 по адресу улица Бородина, д. 56, Новосибирск. Минимальная стоимость в отеле 'Жилое Помещение Бородина 56' за ночь: от 1862₽",82.876861,54.934278
79,79,Как дома. Левый берег на Ватутина,"ул. Ватутина, 20, Новосибирск","Как дома. Левый берег на Ватутина по адресу ул. Ватутина, 20, Новосибирск. Минимальная стоимость в отеле 'Как дома. Левый берег на Ватутина' за ночь: от 2310₽",82.888953,54.986449
80,80,Room Apart (Рум Апарт) на улице Большевистская 35,"ул. Большевистская, 35, Новосибирск","Room Apart (Рум Апарт) на улице Большевистская 35 по адресу ул. Большевистская, 35, Новосибирск. Минимальная стоимость в отеле 'Room Apart (Рум Апарт) на улице Большевистская 35' за ночь: от 3439₽",82.931632,55.011015
81,81,Спасская (бывш. Юбилейная),"ул. Добролюбова, д.4, Венгерово","Спасская (бывш. Юбилейная) по адресу ул. Добролюбова, д.4, Венгерово. Минимальная стоимость в отеле 'Спасская (бывш. Юбилейная)' за ночь: от 2289₽",76.740317,55.680615
82,82,Capsule Tolmachevo,"пр-т Можерина, 1В, Обь, Обь","Capsule Tolmachevo по адресу пр-т Можерина, 1В, Обь, Обь. Минимальная стоимость в отеле 'Capsule Tolmachevo' за ночь: от 1684₽",82.681604,54.998824
83,83,Мини-отель Аркада,"улица Кривощёковская, д. 15, корп. 7, Новосибирск","Мини-отель Аркада по адресу улица Кривощёковская, д. 15, корп. 7, Новосибирск. Минимальная стоимость в отеле 'Мини-отель Аркада' за ночь: от 2377₽",82.928452,55.016197
84,84,Апаратменты Обская 46/2,"Обская улица, д.46/2, Новосибирск","Апаратменты Обская 46/2 по адресу Обская улица, д.46/2, Новосибирск. Минимальная стоимость в отеле 'Апаратменты Обская 46/2' за ночь: от 3962₽",82.945268,55.001473
85,85,Парк-отель «Шишка»,"Voronezhskiy pereulok, 16/1, Новосибирск","Парк-отель «Шишка» по адресу Voronezhskiy pereulok, 16/1, Новосибирск. Минимальная стоимость в отеле 'Парк-отель «Шишка»' за ночь: от 2293₽",83.028533,55.056404
86,86,Отель Skyport,"проспект Мозжерина, д.8, Обь","Отель Skyport по адресу проспект Мозжерина, д.8, Обь. Минимальная стоимость в отеле 'Отель Skyport' за ночь: от 4473₽",82.667356,55.005821
87,87,Тайга,"​Чаплыгина, 65, Новосибирск","Тайга по адресу ​Чаплыгина, 65, Новосибирск. Минимальная стоимость в отеле 'Тайга' за ночь: от 1900₽",82.920259,55.026117
88,88,Уютные апартаменты.,"улица Карла Маркса, д. 1/1, Бердск","Уютные апартаменты. по адресу улица Карла Маркса, д. 1/1, Бердск. Минимальная стоимость в отеле 'Уютные апартаменты.' за ночь: от 3143₽",83.085495,54.764558
89,89,АлАнт на улице Фрунзе,"ул. Фрунзе, 20, Новосибирск","АлАнт на улице Фрунзе по адресу ул. Фрунзе, 20, Новосибирск. Минимальная стоимость в отеле 'АлАнт на улице Фрунзе' за ночь: от 4125₽",82.930329,55.036974
90,90,Спа-отель Крона,"улица Морская, д. 26, Бердск","Спа-отель Крона по адресу улица Морская, д. 26, Бердск. Минимальная стоимость в отеле 'Спа-отель Крона' за ночь: от 6714₽",83.041567,54.794518
91,91,Гостиничный комплекс Домино,"ул. Титова, д. 184/1, Новосибирск","Гостиничный комплекс Домино по адресу ул. Титова, д. 184/1, Новосибирск. Минимальная стоимость в отеле 'Гостиничный комплекс Домино' за ночь: от 2200₽",82.832781,54.981309
92,92,Отель Гостиница Маршал Новосибирск,"улица Солидарности, д. 72а, Новосибирск","Отель Гостиница Маршал Новосибирск по адресу улица Солидарности, д. 72а, Новосибирск. Минимальная стоимость в отеле 'Отель Гостиница Маршал Новосибирск' за ночь: от 2102₽",82.960108,55.15426
93,93,Yousinn (Юсинн) на улице Иванова 15,"ул. Иванова, 13, Новосибирск","Yousinn (Юсинн) на улице Иванова 15 по адресу ул. Иванова, 13, Новосибирск. Минимальная стоимость в отеле 'Yousinn (Юсинн) на улице Иванова 15' за ночь: от 2388₽",83.086286,54.867601
94,94,Yousinn (Юсинн) на проспекте Красный 188,"пр-кт Красный, 188, Новосибирск","Yousinn (Юсинн) на проспекте Красный 188 по адресу пр-кт Красный, 188, Новосибирск. Минимальная стоимость в отеле 'Yousinn (Юсинн) на проспекте Красный 188' за ночь: от 3189₽",82.914195,55.059688
95,95,Yousinn (Юсинн) на улице Восход,"ул. Восход, 26/1, Новосибирск","Yousinn (Юсинн) на улице Восход по адресу ул. Восход, 26/1, Новосибирск. Минимальная стоимость в отеле 'Yousinn (Юсинн) на улице Восход' за ночь: от 2817₽",82.943355,55.01293
96,96,Курорт-отель Морозово,"Урочище Морозовское Бердского спецлесхоза, кварталы 18 и 43, ул. Речкуновская зона отдыха, 1, Морозово","Курорт-отель Морозово по адресу Урочище Морозовское Бердского спецлесхоза, кварталы 18 и 43, ул. Речкуновская зона отдыха, 1, Морозово. Минимальная стоимость в отеле 'Курорт-отель Морозово' за ночь: от 4357₽",83.222479,54.768812
97,97,Отель 54,"квартал Д, 17А, Барабинск","Отель 54 по адресу квартал Д, 17А, Барабинск. Минимальная стоимость в отеле 'Отель 54' за ночь: от 3114₽",78.345346,55.336308
98,98,Viaggio Aparts (Виаджио Апартс) на улице Танковая,"ул. Танковая, 32, Новосибирск","Viaggio Aparts (Виаджио Апартс) на улице Танковая по адресу ул. Танковая, 32, Новосибирск. Минимальная стоимость в отеле 'Viaggio Aparts (Виаджио Апартс) на улице Танковая' за ночь: от 3400₽",82.930823,55.059884
99,99,Хостел Евразия,"проспект Карла Маркса, д. 1, Новосибирск","Хостел Евразия по адресу проспект Карла Маркса, д. 1, Новосибирск. Минимальная стоимость в отеле 'Хостел Евразия' за ночь: от 1501₽",82.896382,54.983644
100,100,Хостел On-Day,"улица Ленина, 88, Новосибирск","Хостел On-Day по адресу улица Ленина, 88, Новосибирск. Минимальная стоимость в отеле 'Хостел On-Day' за ночь: от 1634₽",82.897954,55.037423
101,101,Санаторий-профилакторий Сибиряк,"Зелёная Роща, 15, Бердск","Санаторий-профилакторий Сибиряк по адресу Зелёная Роща, 15, Бердск. Минимальная стоимость в отеле 'Санаторий-профилакторий Сибиряк' за ночь: от 14262₽",83.030527,54.727921
102,102,Спорт,"ул. Ленина, 9Б, Бердск","Спорт по адресу ул. Ленина, 9Б, Бердск. Минимальная стоимость в отеле 'Спорт' за ночь: от 3309₽",83.084543,54.767492
103,103,Стильные апартаменты,"улица Большевистская, 37, Новосибирск","Стильные апартаменты по адресу улица Большевистская, 37, Новосибирск. Минимальная стоимость в отеле 'Стильные апартаменты' за ночь: от 2971₽",82.932332,55.010504
104,104,Студия на Комсомольской RestApart54,"улица Комсомольская, д.14, Бердск","Студия на Комсомольской RestApart54 по адресу улица Комсомольская, д.14, Бердск. Минимальная стоимость в отеле 'Студия на Комсомольской RestApart54' за ночь: от 2921₽",83.095511,54.765389
105,105,Барракуда на улице Богдана Хмельницкого,"ул. Богдана Хмельницкого, д. 65/1, Новосибирск","Барракуда на улице Богдана Хмельницкого по адресу ул. Богдана Хмельницкого, д. 65/1, Новосибирск. Минимальная стоимость в отеле 'Барракуда на улице Богдана Хмельницкого' за ночь: от 4400₽",82.967295,55.083256
106,106,Борвиха,"Морская ул., д. 3, Бердск","Борвиха по адресу Морская ул., д. 3, Бердск. Минимальная стоимость в отеле 'Борвиха' за ночь: от 11535₽",83.051296,54.787526
107,107,Гостиничный Комплекс Кировский,"ул. Петухова, д. 67, Новосибирск","Гостиничный Комплекс Кировский по адресу ул. Петухова, д. 67, Новосибирск. Минимальная стоимость в отеле 'Гостиничный Комплекс Кировский' за ночь: от 1458₽",82.885683,54.943359
108,108,Хостел RE,"улица Державина, д.49, Новосибирск","Хостел RE по адресу улица Державина, д.49, Новосибирск. Минимальная стоимость в отеле 'Хостел RE' за ночь: от 2260₽",82.932575,55.040291
109,109,Oazis apart (Оазис Апарт) на улице Покатная 130 корпус 1,"ул. Покатная, 130, корп. 1, Новосибирск","Oazis apart (Оазис Апарт) на улице Покатная 130 корпус 1 по адресу ул. Покатная, 130, корп. 1, Новосибирск. Минимальная стоимость в отеле 'Oazis apart (Оазис Апарт) на улице Покатная 130 корпус 1' за ночь: от 2721₽",82.95117,55.026112
110,110,Жилое помещение Однокомнатная на метро Октябрьская,"улица Кирова, д.11, Новосибирск","Жилое помещение Однокомнатная на метро Октябрьская по адресу улица Кирова, д.11, Новосибирск. Минимальная стоимость в отеле 'Жилое помещение Однокомнатная на метро Октябрьская' за ночь: от 3681₽",82.938387,55.020611
111,111,Yousinn (Юсинн) на улице Добролюбова,"ул. Добролюбова, 18/1, Новосибирск","Yousinn (Юсинн) на улице Добролюбова по адресу ул. Добролюбова, 18/1, Новосибирск. Минимальная стоимость в отеле 'Yousinn (Юсинн) на улице Добролюбова' за ночь: от 2868₽",82.952895,55.009967
112,112,Guest House Igarsky,"Ulitsa Igarskaya 20 korpus 2, Новосибирск","Guest House Igarsky по адресу Ulitsa Igarskaya 20 korpus 2, Новосибирск. Минимальная стоимость в отеле 'Guest House Igarsky' за ночь: от 7787₽",82.939366,55.100876
113,113,Hotel On Babaeva,"Babaeva 56 Novosibirsk 630900,Babaeva, Новосибирск","Hotel On Babaeva по адресу Babaeva 56 Novosibirsk 630900,Babaeva, Новосибирск. Минимальная стоимость в отеле 'Hotel On Babaeva' за ночь: от 3202₽",82.92043,55.030204
114,114,Yousinn (Юсинн) на улице Гоголя 19,"ул. Гоголя, 19, Новосибирск","Yousinn (Юсинн) на улице Гоголя 19 по адресу ул. Гоголя, 19, Новосибирск. Минимальная стоимость в отеле 'Yousinn (Юсинн) на улице Гоголя 19' за ночь: от 2802₽",82.927104,55.043345
115,115,Кристалл,"Россия, 633010, Новосибирская область, Искитим, ул. Коммунистическая, д. 57, Искитим","Кристалл по адресу Россия, 633010, Новосибирская область, Искитим, ул. Коммунистическая, д. 57, Искитим. Минимальная стоимость в отеле 'Кристалл' за ночь: от 4507₽",83.305924,54.651646
116,116,Парус,"ул. Железнодорожная, 66А, Купино","Парус по адресу ул. Железнодорожная, 66А, Купино. Минимальная стоимость в отеле 'Парус' за ночь: от 1893₽",77.276692,54.359247
117,117,Podushka Lyuks na Krasnom prospekte 73,"Krasnyy Prospekt 73 Tsentralnyy Rayon,Krasnyy Prospekt, Новосибирск","Podushka Lyuks na Krasnom prospekte 73 по адресу Krasnyy Prospekt 73 Tsentralnyy Rayon,Krasnyy Prospekt, Новосибирск. Минимальная стоимость в отеле 'Podushka Lyuks na Krasnom prospekte 73' за ночь: от 3202₽",82.92043,55.030204
118,118,Советская,"Советская, 252 к.1, Искитим","Советская по адресу Советская, 252 к.1, Искитим. Минимальная стоимость в отеле 'Советская' за ночь: от 2103₽",83.308394,54.635256
119,119,AAA Elita on Krasnyi Prospekt 59,"Krasnyi Prospekt 59, Новосибирск","AAA Elita on Krasnyi Prospekt 59 по адресу Krasnyi Prospekt 59, Новосибирск. Минимальная стоимость в отеле 'AAA Elita on Krasnyi Prospekt 59' за ночь: от 3202₽",82.92043,55.030204
120,120,Хостел Adres,"ул. Дуси Ковальчук, 272/4, Новосибирск","Хостел Adres по адресу ул. Дуси Ковальчук, 272/4, Новосибирск. Минимальная стоимость в отеле 'Хостел Adres' за ночь: от 2260₽",82.91998,55.060524
121,121,Отель Фаворит,"улица Тургенева, д. 9, Карасук","Отель Фаворит по адресу улица Тургенева, д. 9, Карасук. Минимальная стоимость в отеле 'Отель Фаворит' за ночь: от 2252₽",78.028007,53.732691
122,122,Fine o'clock na Oktyabrskaya 40,"ul. Oktyabrskaya 40 Novosibirsk 630007,ul. Oktyabrskaya, Новосибирск","Fine o'clock na Oktyabrskaya 40 по адресу ul. Oktyabrskaya 40 Novosibirsk 630007,ul. Oktyabrskaya, Новосибирск. Минимальная стоимость в отеле 'Fine o'clock na Oktyabrskaya 40' за ночь: от 3202₽",82.918974,55.024146
123,123,Novonikolayevskaya,"ул. Блюхера, д.71, лит.Б, Новосибирск","Novonikolayevskaya по адресу ул. Блюхера, д.71, лит.Б, Новосибирск. Минимальная стоимость в отеле 'Novonikolayevskaya' за ночь: от 3202₽",82.902984,54.992343
124,124,Мини-Отель Гостинный Двор,"Советское шоссе, д.7, Новосибирск","Мини-Отель Гостинный Двор по адресу Советское шоссе, д.7, Новосибирск. Минимальная стоимость в отеле 'Мини-Отель Гостинный Двор' за ночь: от 2452₽",82.952571,54.922446
125,125,Гостиный двор,"ул. Ленина, д.54, Сузун","Гостиный двор по адресу ул. Ленина, д.54, Сузун. Минимальная стоимость в отеле 'Гостиный двор' за ночь: от 3122₽",82.320921,53.77568
126,126,Hostel Twenty 7,"Lenina 50, Новосибирск","Hostel Twenty 7 по адресу Lenina 50, Новосибирск. Минимальная стоимость в отеле 'Hostel Twenty 7' за ночь: от 2260₽",82.902697,55.032841
127,127,Yousinn (Юсинн) на улице Галущака 4,"ул. Галущака, 4, Новосибирск","Yousinn (Юсинн) на улице Галущака 4 по адресу ул. Галущака, 4, Новосибирск. Минимальная стоимость в отеле 'Yousinn (Юсинн) на улице Галущака 4' за ночь: от 10680₽",82.904332,55.052572
128,128,Хостел Купеческий дворъ,"Красноярская улица, д.3, Новосибирск","Хостел Купеческий дворъ по адресу Красноярская улица, д.3, Новосибирск. Минимальная стоимость в отеле 'Хостел Купеческий дворъ' за ночь: от 2260₽",82.908904,55.031561
129,129,Мини-отель Альянс,"улица Галущака, д. 2, Новосибирск","Мини-отель Альянс по адресу улица Галущака, д. 2, Новосибирск. Минимальная стоимость в отеле 'Мини-отель Альянс' за ночь: от 2452₽",82.900325,55.050808
130,130,Kvartira Na Marksa,"Prospekt Marksa 7, Novosibirsk, Новосибирск","Kvartira Na Marksa по адресу Prospekt Marksa 7, Novosibirsk, Новосибирск. Минимальная стоимость в отеле 'Kvartira Na Marksa' за ночь: от 3202₽",82.897082,54.98507
131,131,Уют (квартирное бюро),"ул. Ленина, 75, Новосибирск","Уют (квартирное бюро) по адресу ул. Ленина, 75, Новосибирск. Минимальная стоимость в отеле 'Уют (квартирное бюро)' за ночь: от 3090₽",82.896337,55.038047
132,132,Апарт-Отель Усадьба,"улица Александра Невского, д. 30, Новосибирск","Апарт-Отель Усадьба по адресу улица Александра Невского, д. 30, Новосибирск. Минимальная стоимость в отеле 'Апарт-Отель Усадьба' за ночь: от 4369₽",82.957557,55.079875
133,133,4 Cities,"58/1 Aeroport Street, Новосибирск","4 Cities по адресу 58/1 Aeroport Street, Новосибирск. Минимальная стоимость в отеле '4 Cities' за ночь: от 3202₽",82.92043,55.030204
134,134,"Элитная 2х квартира класса люкс с камином, джакузи и кондиционером на ул. Ядринцевская. Метро площадь Ленина","улица Ядринцевская 18, Новосибирск","Элитная 2х квартира класса люкс с камином, джакузи и кондиционером на ул. Ядринцевская. Метро площадь Ленина по адресу улица Ядринцевская 18, Новосибирск. Минимальная стоимость в отеле 'Элитная 2х квартира класса люкс с камином, джакузи и кондиционером на ул. Ядринцевская. Метро площадь Ленина' за ночь: от 11000₽",82.924697,55.033032
135,135,Alexandr House B&B,"ул. Далидовича, д. 25, Новосибирск","Alexandr House B&B по адресу ул. Далидовича, д. 25, Новосибирск. Минимальная стоимость в отеле 'Alexandr House B&B' за ночь: от 4063₽",82.956829,55.022159
136,136,Apartment on pr. Dzerzhinskogo,"pr. Dzerzhinskogo, 20/1, 630040 Novosibirsk, Russia, Новосибирск","Apartment on pr. Dzerzhinskogo по адресу pr. Dzerzhinskogo, 20/1, 630040 Novosibirsk, Russia, Новосибирск. Минимальная стоимость в отеле 'Apartment on pr. Dzerzhinskogo' за ночь: от 3090₽",82.970412,55.052407
137,137,Бурлинка,"Железнодорожная ул., д. 13, Новосибирск","Бурлинка по адресу Железнодорожная ул., д. 13, Новосибирск. Минимальная стоимость в отеле 'Бурлинка' за ночь: от 3202₽",82.901035,55.045991
138,138,Жилые помещения Soyuz +,"ul. Tulskaya 525/1 Novosibirsk 630000,ul. Tulskaya, Новосибирск","Жилые помещения Soyuz + по адресу ul. Tulskaya 525/1 Novosibirsk 630000,ul. Tulskaya, Новосибирск. Минимальная стоимость в отеле 'Жилые помещения Soyuz +' за ночь: от 3202₽",82.837964,54.949197
139,139,Хуторок,"ул. Бердская 97, Маслянино","Хуторок по адресу ул. Бердская 97, Маслянино. Минимальная стоимость в отеле 'Хуторок' за ночь: от 4220₽",84.22623,54.34363
140,140,Аппартаменты На Маркса 14/1-1,"проспект Карла Маркса, д.14, Новосибирск","Аппартаменты На Маркса 14/1-1 по адресу проспект Карла Маркса, д.14, Новосибирск. Минимальная стоимость в отеле 'Аппартаменты На Маркса 14/1-1' за ночь: от 1926₽",82.901457,54.985829
141,141,Отель (закрыт),"улица Русская, Новосибирск","Отель (закрыт) по адресу улица Русская, Новосибирск. Минимальная стоимость в отеле 'Отель (закрыт)' за ночь: от 3202₽",83.052554,54.845503
142,142,Озеро Карачи,"632224, Новосибирская область, Чановский район, п. Озеро-Карачи, ул. Школьная, 1, Озеро-Карачи","Озеро Карачи по адресу 632224, Новосибирская область, Чановский район, п. Озеро-Карачи, ул. Школьная, 1, Озеро-Карачи. Минимальная стоимость в отеле 'Озеро Карачи' за ночь: от 4507₽",76.941324,55.345432
143,143,Randevu,"Krasnopartizanskaya 124b, Венгерово","Randevu по адресу Krasnopartizanskaya 124b, Венгерово. Минимальная стоимость в отеле 'Randevu' за ночь: от 4507₽",76.768802,55.688629
144,144,Razdolie,"Voronezhskiy Pereulok 16/1 Novosibirsk 630010,Voronezhskiy Pereulok, Новосибирск","Razdolie по адресу Voronezhskiy Pereulok 16/1 Novosibirsk 630010,Voronezhskiy Pereulok, Новосибирск. Минимальная стоимость в отеле 'Razdolie' за ночь: от 3202₽",83.028533,55.056404
145,145,Serebryanye Klyuchi,"Serebryanye Klyuchi 8, Новосибирск","Serebryanye Klyuchi по адресу Serebryanye Klyuchi 8, Новосибирск. Минимальная стоимость в отеле 'Serebryanye Klyuchi' за ночь: от 7787₽",82.935027,55.068984
146,146,888,"ul. Michurina 12A Novosibirsk 630091,ul. Michurina, Новосибирск","888 по адресу ul. Michurina 12A Novosibirsk 630091,ul. Michurina, Новосибирск. Минимальная стоимость в отеле '888' за ночь: от 3202₽",82.92043,55.030204
147,147,Жилые помещения Dostoevsky,"Maxima Gorkogo Street 85 Novosibirsk 630099,Maxima Gorkogo Street, Новосибирск","Жилые помещения Dostoevsky по адресу Maxima Gorkogo Street 85 Novosibirsk 630099,Maxima Gorkogo Street, Новосибирск. Минимальная стоимость в отеле 'Жилые помещения Dostoevsky' за ночь: от 3202₽",82.928083,55.028058
148,148,Меркурий,"Коммуностроевская ул., д. 178, Новосибирск","Меркурий по адресу Коммуностроевская ул., д. 178, Новосибирск. Минимальная стоимость в отеле 'Меркурий' за ночь: от 4220₽",82.92043,55.030204
149,149,Гостевой дом Вера,"ул. Севастопольская, д.581, Восток","Гостевой дом Вера по адресу ул. Севастопольская, д.581, Восток. Минимальная стоимость в отеле 'Гостевой дом Вера' за ночь: от 12183₽",137.014299,50.548584
150,150,Мини отель Звездный,"Улица Военная 9/1, Новосибирск","Мини отель Звездный по адресу Улица Военная 9/1, Новосибирск. Минимальная стоимость в отеле 'Мини отель Звездный' за ночь: от 2452₽",82.939124,55.026613
151,151,Набережная,"Инская ул., д. 39, Новосибирск","Набережная по адресу Инская ул., д. 39, Новосибирск. Минимальная стоимость в отеле 'Набережная' за ночь: от 3202₽",82.931227,55.012522
152,152,Obschezhitie Gostinichnogo Tipa Akademiya,"Новосибирск, ул. Ватутина, д.57, Новосибирск","Obschezhitie Gostinichnogo Tipa Akademiya по адресу Новосибирск, ул. Ватутина, д.57, Новосибирск. Минимальная стоимость в отеле 'Obschezhitie Gostinichnogo Tipa Akademiya' за ночь: от 3202₽",82.906497,54.979604
153,153,Hostel Buen Camino,"M Gor'kogo 53 Novosibirsk,M Gor'kogo, Новосибирск","Hostel Buen Camino по адресу M Gor'kogo 53 Novosibirsk,M Gor'kogo, Новосибирск. Минимальная стоимость в отеле 'Hostel Buen Camino' за ночь: от 2260₽",82.915866,55.027289
154,154,AAA Elita on Yadryncevskaya 18,"Ядринцевская,18, Новосибирск","AAA Elita on Yadryncevskaya 18 по адресу Ядринцевская,18, Новосибирск. Минимальная стоимость в отеле 'AAA Elita on Yadryncevskaya 18' за ночь: от 3202₽",82.924697,55.033032
155,155,АлАнт на улице Зыряновская,"ул. Зыряновская, 61, Новосибирск","АлАнт на улице Зыряновская по адресу ул. Зыряновская, 61, Новосибирск. Минимальная стоимость в отеле 'АлАнт на улице Зыряновская' за ночь: от 4125₽",82.941235,55.009982
156,156,Apartamentyi Pisareva 20,"ulitsa Pisareva, 20, Novosibirsk, Russia, Новосибирск","Apartamentyi Pisareva 20 по адресу ulitsa Pisareva, 20, Novosibirsk, Russia, Новосибирск. Минимальная стоимость в отеле 'Apartamentyi Pisareva 20' за ночь: от 3202₽",82.918211,55.048606
157,157,Отель «Чернышевский»,"Чернышевский спуск, 16, Новосибирск","Отель «Чернышевский» по адресу Чернышевский спуск, 16, Новосибирск. Минимальная стоимость в отеле 'Отель «Чернышевский»' за ночь: от 3806₽",82.896543,55.0278
158,158,Дом рядом хостел,"Российская, 21, Новосибирск","Дом рядом хостел по адресу Российская, 21, Новосибирск. Минимальная стоимость в отеле 'Дом рядом хостел' за ночь: от 3202₽",83.084938,54.869352
159,159,Гостевой Дом Avantazh,"Улица Нарядная, д.1, Новосибирск","Гостевой Дом Avantazh по адресу Улица Нарядная, д.1, Новосибирск. Минимальная стоимость в отеле 'Гостевой Дом Avantazh' за ночь: от 7787₽",82.874121,55.069046
160,160,na Leninskoy,"Улица Ленина 55, Новосибирск","na Leninskoy по адресу Улица Ленина 55, Новосибирск. Минимальная стоимость в отеле 'na Leninskoy' за ночь: от 3202₽",82.902248,55.032495
161,161,Mini-Hotel Uytnyi Dvorik,"Partizanskaya Street Building 111,Partizanskaya Street, Новосибирск","Mini-Hotel Uytnyi Dvorik по адресу Partizanskaya Street Building 111,Partizanskaya Street, Новосибирск. Минимальная стоимость в отеле 'Mini-Hotel Uytnyi Dvorik' за ночь: от 3202₽",82.92043,55.030204
162,162,Жилые помещения Pioneer,"Вокзальная Магистраль 4/2, Новосибирск","Жилые помещения Pioneer по адресу Вокзальная Магистраль 4/2, Новосибирск. Минимальная стоимость в отеле 'Жилые помещения Pioneer' за ночь: от 3202₽",82.903766,55.033393
163,163,Сибирская Жемчужина,"Ордынская трасса, в поселке Кирза, Кирза","Сибирская Жемчужина по адресу Ордынская трасса, в поселке Кирза, Кирза. Минимальная стоимость в отеле 'Сибирская Жемчужина' за ночь: от 6783₽",81.565348,54.216999
164,164,Вилла Черепаново,"ул. Партизанская, д.10А, Черепаново","Вилла Черепаново по адресу ул. Партизанская, д.10А, Черепаново. Минимальная стоимость в отеле 'Вилла Черепаново' за ночь: от 15205₽",83.370566,54.228448
165,165,Yousinn (Юсинн) на улице Фрунзе 49,"ул. Фрунзе, 49, Новосибирск","Yousinn (Юсинн) на улице Фрунзе 49 по адресу ул. Фрунзе, 49, Новосибирск. Минимальная стоимость в отеле 'Yousinn (Юсинн) на улице Фрунзе 49' за ночь: от 2988₽",82.934524,55.038418
166,166,AAA Elita on Ordzhanikidze 23,"Орджоникидзе,23, Новосибирск","AAA Elita on Ordzhanikidze 23 по адресу Орджоникидзе,23, Новосибирск. Минимальная стоимость в отеле 'AAA Elita on Ordzhanikidze 23' за ночь: от 3202₽",82.917726,55.031376
167,167,Хостел Антей,"630005, Россия, г. Новособирск, ул. Писарева, д. 89, Новосибирск","Хостел Антей по адресу 630005, Россия, г. Новособирск, ул. Писарева, д. 89, Новосибирск. Минимальная стоимость в отеле 'Хостел Антей' за ночь: от 2260₽",82.928937,55.050029
168,168,Domashniy,"ul. Lenina, 55, Novosibirsk, Novosibirskaya oblast', Russia, 630004, Новосибирск","Domashniy по адресу ul. Lenina, 55, Novosibirsk, Novosibirskaya oblast', Russia, 630004, Новосибирск. Минимальная стоимость в отеле 'Domashniy' за ночь: от 3202₽",82.92043,55.030204
169,169,Олимпик,"ул. Боровая Партия, д. 12, Новосибирск","Олимпик по адресу ул. Боровая Партия, д. 12, Новосибирск. Минимальная стоимость в отеле 'Олимпик' за ночь: от 3202₽",83.096014,54.811908
170,170,Yousinn (Юсинн) на улице Первомайская 230,"ул. Первомайская, 230, Новосибирск","Yousinn (Юсинн) на улице Первомайская 230 по адресу ул. Первомайская, 230, Новосибирск. Минимальная стоимость в отеле 'Yousinn (Юсинн) на улице Первомайская 230' за ночь: от 2621₽",83.049005,54.977212
171,171,Yousinn (Юсинн) на улице Кошурникова,"ул. Кошурникова, 29/5, Новосибирск","Yousinn (Юсинн) на улице Кошурникова по адресу ул. Кошурникова, 29/5, Новосибирск. Минимальная стоимость в отеле 'Yousinn (Юсинн) на улице Кошурникова' за ночь: от 2868₽",82.973367,55.040858
172,172,Хостел «Обской»,"ул. ЖКО Аэропорта, 30, Обь","Хостел «Обской» по адресу ул. ЖКО Аэропорта, 30, Обь. Минимальная стоимость в отеле 'Хостел «Обской»' за ночь: от 2076₽",82.694602,54.994827
173,173,Staryij Tsentr Hostel,"Krasniy prospekt, 14, Novosibirsk, Russia, Новосибирск","Staryij Tsentr Hostel по адресу Krasniy prospekt, 14, Novosibirsk, Russia, Новосибирск. Минимальная стоимость в отеле 'Staryij Tsentr Hostel' за ночь: от 2260₽",82.923807,55.019501
174,174,Краснозерский,"632901, Новосибирская обл., Кайгородский сельсовет, ул. Санаторий, д. 1, Кайгородский","Краснозерский по адресу 632901, Новосибирская обл., Кайгородский сельсовет, ул. Санаторий, д. 1, Кайгородский. Минимальная стоимость в отеле 'Краснозерский' за ночь: от 4507₽",79.191199,53.980521
175,175,Озерный дом,"ул. Бердский Тупик, 12, Новосибирск","Озерный дом по адресу ул. Бердский Тупик, 12, Новосибирск. Минимальная стоимость в отеле 'Озерный дом' за ночь: от 10521₽",83.056327,54.831136
176,176,Парк-отель Шишка,"Воронежский переулок, 16/1, Новосибирск","Парк-отель Шишка по адресу Воронежский переулок, 16/1, Новосибирск. Минимальная стоимость в отеле 'Парк-отель Шишка' за ночь: от 3202₽",83.028533,55.056404
177,177,Здоровье,"ул. Новосёлов, д. 25, Новосибирск","Здоровье по адресу ул. Новосёлов, д. 25, Новосибирск. Минимальная стоимость в отеле 'Здоровье' за ночь: от 6783₽",83.065292,54.962819
178,178,Чулым,"ул. Кожемякина, 22а/1, Чулым","Чулым по адресу ул. Кожемякина, 22а/1, Чулым. Минимальная стоимость в отеле 'Чулым' за ночь: от 3122₽",80.970582,55.096198
179,179,Hostel Nsk Trend,"ulitsa El'tsovskaya, 6, Novosibirsk, Russia, Новосибирск","Hostel Nsk Trend по адресу ulitsa El'tsovskaya, 6, Novosibirsk, Russia, Новосибирск. Минимальная стоимость в отеле 'Hostel Nsk Trend' за ночь: от 2260₽",82.92043,55.030204
180,180,Бутик-отель Новая,"улица Дмитрия Шамшурина, д.1, Новосибирск","Бутик-отель Новая по адресу улица Дмитрия Шамшурина, д.1, Новосибирск. Минимальная стоимость в отеле 'Бутик-отель Новая' за ночь: от 3065₽",82.903748,55.028682
181,181,Меблированная комната On Gravity 29A,"ул. Самотечная, 29а, Новосибирск","Меблированная комната On Gravity 29A по адресу ул. Самотечная, 29а, Новосибирск. Минимальная стоимость в отеле 'Меблированная комната On Gravity 29A' за ночь: от 3100₽",82.906605,55.011583
182,182,Ozero Karachi,"632224, Новосибирская область, Чановский район, курортный посёлок Озеро-Карачи, ул. Школьная 1е, Озеро-Карачи","Ozero Karachi по адресу 632224, Новосибирская область, Чановский район, курортный посёлок Озеро-Карачи, ул. Школьная 1е, Озеро-Карачи. Минимальная стоимость в отеле 'Ozero Karachi' за ночь: от 4507₽",76.949849,55.346968
183,183,Мини-Отель Спарта,"улица Саратовкая, д.62, Новосибирск","Мини-Отель Спарта по адресу улица Саратовкая, д.62, Новосибирск. Минимальная стоимость в отеле 'Мини-Отель Спарта' за ночь: от 2452₽",82.879071,55.036473
184,184,Заря,"ул. Ленина, д. 100, Татарск","Заря по адресу ул. Ленина, д. 100, Татарск. Минимальная стоимость в отеле 'Заря' за ночь: от 1361₽",75.967918,55.21878
185,185,Хостел Алексия,"улица Ипподромская, д. 30, Новосибирск","Хостел Алексия по адресу улица Ипподромская, д. 30, Новосибирск. Минимальная стоимость в отеле 'Хостел Алексия' за ночь: от 2260₽",82.943759,55.045537
186,186,Room Apart (Рум Апарт) на улице Фрунзе,"ул. Фрунзе, 252/1, Новосибирск","Room Apart (Рум Апарт) на улице Фрунзе по адресу ул. Фрунзе, 252/1, Новосибирск. Минимальная стоимость в отеле 'Room Apart (Рум Апарт) на улице Фрунзе' за ночь: от 3951₽",82.966378,55.042081
187,187,Отель Берёзка,"улица Деповская, д.23, Барабинск","Отель Берёзка по адресу улица Деповская, д.23, Барабинск. Минимальная стоимость в отеле 'Отель Берёзка' за ночь: от 3284₽",78.348616,55.357383
188,188,Сипк Ано,"Новосибирск, ул. Народная, д.7/1, Новосибирск","Сипк Ано по адресу Новосибирск, ул. Народная, д.7/1, Новосибирск. Минимальная стоимость в отеле 'Сипк Ано' за ночь: от 3202₽",82.939303,55.065355
189,189,"Jet2Day на Железнодорожной, 11 этаж (Джет ту Дэй)","ул.Железнодорожная, д.15/1, Новосибирск","Jet2Day на Железнодорожной, 11 этаж (Джет ту Дэй) по адресу ул.Железнодорожная, д.15/1, Новосибирск. Минимальная стоимость в отеле 'Jet2Day на Железнодорожной, 11 этаж (Джет ту Дэй)' за ночь: от 2500₽",82.904925,55.047028
190,190,Na Naberezhnoj Hostel,"ulitsa Obskaya, 139, Novosibirsk, Russia, Новосибирск","Na Naberezhnoj Hostel по адресу ulitsa Obskaya, 139, Novosibirsk, Russia, Новосибирск. Минимальная стоимость в отеле 'Na Naberezhnoj Hostel' за ночь: от 2260₽",82.954152,54.999996
191,191,Риф,"4-й микрорайон, 9а, Линёво","Риф по адресу 4-й микрорайон, 9а, Линёво. Минимальная стоимость в отеле 'Риф' за ночь: от 3122₽",83.379136,54.454098
192,192,Уютная,"ул. Ленина, д.29, Кыштовка","Уютная по адресу ул. Ленина, д.29, Кыштовка. Минимальная стоимость в отеле 'Уютная' за ночь: от 3122₽",76.624569,56.558075
193,193,AAA Elita on Semiy Shamshinih 12,"Sem'i Shamshinyh,12, Новосибирск","AAA Elita on Semiy Shamshinih 12 по адресу Sem'i Shamshinyh,12, Новосибирск. Минимальная стоимость в отеле 'AAA Elita on Semiy Shamshinih 12' за ночь: от 3202₽",82.934327,55.027263
194,194,Myhomehotel on Sibrevkoma 7 1,"Ulitsa Sibrevkoma 7 1, Novosibirsk, Russia, Новосибирск","Myhomehotel on Sibrevkoma 7 1 по адресу Ulitsa Sibrevkoma 7 1, Novosibirsk, Russia, Новосибирск. Минимальная стоимость в отеле 'Myhomehotel on Sibrevkoma 7 1' за ночь: от 3202₽",82.929134,55.022097
195,195,Hostel 888 У Вокзала,"7 Ulitsa Chelyuskintsev, Новосибирск","Hostel 888 У Вокзала по адресу 7 Ulitsa Chelyuskintsev, Новосибирск. Минимальная стоимость в отеле 'Hostel 888 У Вокзала' за ночь: от 2260₽",82.898951,55.037722
196,196,Hotel X.O. Переездная (Икс О),"ул. Переездная 77, Новосибирск","Hotel X.O. Переездная (Икс О) по адресу ул. Переездная 77, Новосибирск. Минимальная стоимость в отеле 'Hotel X.O. Переездная (Икс О)' за ночь: от 3202₽",82.88845,55.05449
197,197,Yousinn (Юсинн) на улице 2-ой Обской 73,"ул. 2-я Обская, 73, Новосибирск","Yousinn (Юсинн) на улице 2-ой Обской 73 по адресу ул. 2-я Обская, 73, Новосибирск. Минимальная стоимость в отеле 'Yousinn (Юсинн) на улице 2-ой Обской 73' за ночь: от 3108₽",82.949984,54.999563
198,198,Победа,"ул. Луначарского 17, Карасук","Победа по адресу ул. Луначарского 17, Карасук. Минимальная стоимость в отеле 'Победа' за ночь: от 1793₽",78.048767,53.730304
199,199,"Алатырь Новосибирск, ул. Блюхера, д. 28","Россия, 630078, Новосибирская область, Новосибирск, ул. Блюхера, д. 28, Новосибирск","Алатырь Новосибирск, ул. Блюхера, д. 28 по адресу Россия, 630078, Новосибирская область, Новосибирск, ул. Блюхера, д. 28, Новосибирск. Минимальная стоимость в отеле 'Алатырь Новосибирск, ул. Блюхера, д. 28' за ночь: от 3202₽",82.898556,54.988195
200,200,Три Кита,"ул. Путевая, д.4, Куйбышев","Три Кита по адресу ул. Путевая, д.4, Куйбышев. Минимальная стоимость в отеле 'Три Кита' за ночь: от 4507₽",78.318576,55.439553
201,201,Жилые помещения WellHome,"Красный проспект, 99, корпус 1, Новосибирск","Жилые помещения WellHome по адресу Красный проспект, 99, корпус 1, Новосибирск. Минимальная стоимость в отеле 'Жилые помещения WellHome' за ночь: от 3202₽",82.910818,55.054521
202,202,Хостел Горького 85,"улица Максима Горького, д.85, Новосибирск","Хостел Горького 85 по адресу улица Максима Горького, д.85, Новосибирск. Минимальная стоимость в отеле 'Хостел Горького 85' за ночь: от 2260₽",82.928083,55.028058
203,203,Парк-отель Сосновый Бор,"Новая заря, д.53 А, Новосибирск","Парк-отель Сосновый Бор по адресу Новая заря, д.53 А, Новосибирск. Минимальная стоимость в отеле 'Парк-отель Сосновый Бор' за ночь: от 6990₽",82.944864,55.085956
204,204,Апарт-отель Гостиниц NET на Обской,"ул. Обская 46/2, Новосибирск","Апарт-отель Гостиниц NET на Обской по адресу ул. Обская 46/2, Новосибирск. Минимальная стоимость в отеле 'Апарт-отель Гостиниц NET на Обской' за ночь: от 2852₽",82.945268,55.001473
205,205,Хостел Норка,"микрорайон Горский, д. 2, Новосибирск","Хостел Норка по адресу микрорайон Горский, д. 2, Новосибирск. Минимальная стоимость в отеле 'Хостел Норка' за ночь: от 2278₽",82.908311,54.993675
206,206,Отель Приморье,"Новосибирская область, Новосибирский район, посёлок Голубой залив, с/п Приморье территория, 2, Новосибирск","Отель Приморье по адресу Новосибирская область, Новосибирский район, посёлок Голубой залив, с/п Приморье территория, 2, Новосибирск. Минимальная стоимость в отеле 'Отель Приморье' за ночь: от 2708₽",82.903371,54.827625
207,207,Мини-Отель Red,"Красный проспект, д.153 А, Новосибирск","Мини-Отель Red по адресу Красный проспект, д.153 А, Новосибирск. Минимальная стоимость в отеле 'Мини-Отель Red' за ночь: от 2338₽",82.908769,55.055764
208,208,Отель Шале на Комсомольском,"Комсомольский Проспект, д. 24, Новосибирск","Отель Шале на Комсомольском по адресу Комсомольский Проспект, д. 24, Новосибирск. Минимальная стоимость в отеле 'Отель Шале на Комсомольском' за ночь: от 3070₽",82.907224,55.032201
209,209,Отель SKYEXPO,"Улица Станционная, д. 100, Новосибирск","Отель SKYEXPO по адресу Улица Станционная, д. 100, Новосибирск. Минимальная стоимость в отеле 'Отель SKYEXPO' за ночь: от 4457₽",82.749301,54.997771
210,210,Уют (квартирное бюро),"ул. Ленина, 75, Новосибирск, Новосибирск","Уют (квартирное бюро) по адресу ул. Ленина, 75, Новосибирск, Новосибирск. Минимальная стоимость в отеле 'Уют (квартирное бюро)' за ночь: от 2000₽",82.896337,55.038047
211,211,AAA Elita on Sovetskaya 36/1,"Советская,36/1, Новосибирск","AAA Elita on Sovetskaya 36/1 по адресу Советская,36/1, Новосибирск. Минимальная стоимость в отеле 'AAA Elita on Sovetskaya 36/1' за ночь: от 3202₽",82.91477,55.037216
212,212,Derzhavina Apartmens,"Derzhavina 92/1, Новосибирск","Derzhavina Apartmens по адресу Derzhavina 92/1, Новосибирск. Минимальная стоимость в отеле 'Derzhavina Apartmens' за ночь: от 3202₽",82.945277,55.040301
213,213,Foxhole,"ул. Фрунзе, 2б, Новосибирск","Foxhole по адресу ул. Фрунзе, 2б, Новосибирск. Минимальная стоимость в отеле 'Foxhole' за ночь: от 2260₽",82.917241,55.035751
214,214,A54 Mega Hostel,"ulitsa Mira, 65 A/1, Novosibirsk, Новосибирск","A54 Mega Hostel по адресу ulitsa Mira, 65 A/1, Novosibirsk, Новосибирск. Минимальная стоимость в отеле 'A54 Mega Hostel' за ночь: от 2260₽",82.926107,54.965414
215,215,Yousinn (Юсинн) на улице Выборной 89/2,"ул. Выборная, 89/2, Новосибирск","Yousinn (Юсинн) на улице Выборной 89/2 по адресу ул. Выборная, 89/2, Новосибирск. Минимальная стоимость в отеле 'Yousinn (Юсинн) на улице Выборной 89/2' за ночь: от 2803₽",83.013872,55.001545
216,216,Noj,"56 Inskaya St. Apt. 8 Novosibirsk,Inskaya St., Новосибирск","Noj по адресу 56 Inskaya St. Apt. 8 Novosibirsk,Inskaya St., Новосибирск. Минимальная стоимость в отеле 'Noj' за ночь: от 3202₽",82.936572,55.009936
217,217,Жилые помещения Putnik,"Yadrintsevskaya 18, Новосибирск","Жилые помещения Putnik по адресу Yadrintsevskaya 18, Новосибирск. Минимальная стоимость в отеле 'Жилые помещения Putnik' за ночь: от 2260₽",82.924697,55.033032
218,218,Жилые помещения Zori,"Ulitsa Sibiryakov-gvardeytsev 82, Новосибирск","Жилые помещения Zori по адресу Ulitsa Sibiryakov-gvardeytsev 82, Новосибирск. Минимальная стоимость в отеле 'Жилые помещения Zori' за ночь: от 2260₽",82.893408,54.933015
219,219,Как дома. Левый берег на Троллейная,"ул. Троллейная, 1, Новосибирск","Как дома. Левый берег на Троллейная по адресу ул. Троллейная, 1, Новосибирск. Минимальная стоимость в отеле 'Как дома. Левый берег на Троллейная' за ночь: от 2165₽",82.857727,54.992833
220,220,Morozovskie Bani,"Выборная, 59, Новосибирск","Morozovskie Bani по адресу Выборная, 59, Новосибирск. Минимальная стоимость в отеле 'Morozovskie Bani' за ночь: от 3202₽",82.991316,54.994951
221,221,Novaya Inn,"Ulitsa Shamshurina, 1 office 6, 630004 Novosibirsk, Russia, Новосибирск","Novaya Inn по адресу Ulitsa Shamshurina, 1 office 6, 630004 Novosibirsk, Russia, Новосибирск. Минимальная стоимость в отеле 'Novaya Inn' за ночь: от 7787₽",82.903748,55.028682
222,222,Однокомнатные апартаменты On Day на Челюскинцев 14,"улица Челюскинцев, д. 14, Новосибирск","Однокомнатные апартаменты On Day на Челюскинцев 14 по адресу улица Челюскинцев, д. 14, Новосибирск. Минимальная стоимость в отеле 'Однокомнатные апартаменты On Day на Челюскинцев 14' за ночь: от 2327₽",82.901825,55.03735
223,223,"Алатырь Новосибирск, ул. Блюхера, д. 16","Россия, 630078, Новосибирская область, Новосибирск, ул. Блюхера, д. 16, Новосибирск","Алатырь Новосибирск, ул. Блюхера, д. 16 по адресу Россия, 630078, Новосибирская область, Новосибирск, ул. Блюхера, д. 16, Новосибирск. Минимальная стоимость в отеле 'Алатырь Новосибирск, ул. Блюхера, д. 16' за ночь: от 3202₽",82.896427,54.986811
224,224,Жилые помещения AAA Elita on Gogol 32/1,"Str. Goldeneye 32/1, intercom 11, 5th floor, Novosibirsk, Novosibirsk Oblast, Russia, Новосибирск","Жилые помещения AAA Elita on Gogol 32/1 по адресу Str. Goldeneye 32/1, intercom 11, 5th floor, Novosibirsk, Novosibirsk Oblast, Russia, Новосибирск. Минимальная стоимость в отеле 'Жилые помещения AAA Elita on Gogol 32/1' за ночь: от 3202₽",82.92043,55.030204
225,225,Отель AHOTELS design style на Советской,"ул. Советская, 8, Новосибирск","Отель AHOTELS design style на Советской по адресу ул. Советская, 8, Новосибирск. Минимальная стоимость в отеле 'Отель AHOTELS design style на Советской' за ночь: от 3118₽",82.918426,55.023831
226,226,Apartment Na Vokzalnoy Magistrali,"Ulitsa Vokzalnaya Magistral, 5, Ap.47, 630004 Novosibirsk, Russia, Новосибирск","Apartment Na Vokzalnoy Magistrali по адресу Ulitsa Vokzalnaya Magistral, 5, Ap.47, 630004 Novosibirsk, Russia, Новосибирск. Минимальная стоимость в отеле 'Apartment Na Vokzalnoy Magistrali' за ночь: от 3090₽",82.907718,55.033718
227,227,4 Rooms,"ul. Gogolya, 8, Novosibirsk, Novosibirskaya oblast', Russia, 630091, Новосибирск","4 Rooms по адресу ul. Gogolya, 8, Novosibirsk, Novosibirskaya oblast', Russia, 630091, Новосибирск. Минимальная стоимость в отеле '4 Rooms' за ночь: от 3202₽",82.92043,55.030204
228,228,Yousinn (Юсинн) на улице Героев Революции,"ул. Героев Революции, 31, Новосибирск","Yousinn (Юсинн) на улице Героев Революции по адресу ул. Героев Революции, 31, Новосибирск. Минимальная стоимость в отеле 'Yousinn (Юсинн) на улице Героев Революции' за ночь: от 2969₽",83.083761,54.975672
229,229,Колибри,"ул. Партизанская, д.9, Маслянино","Колибри по адресу ул. Партизанская, д.9, Маслянино. Минимальная стоимость в отеле 'Колибри' за ночь: от 3582₽",84.217031,54.347105
230,230,Хостел Fine O Clock,"Oktyabrskaya Street 40, Novosibirsk, Russia, Новосибирск","Хостел Fine O Clock по адресу Oktyabrskaya Street 40, Novosibirsk, Russia, Новосибирск. Минимальная стоимость в отеле 'Хостел Fine O Clock' за ночь: от 2260₽",82.92043,55.030204
231,231,PARUS Medical Resort&Spa,"630510, Новосибирская область, п. Кудряшовский, Береговая, 56, Кудряшовский","PARUS Medical Resort&Spa по адресу 630510, Новосибирская область, п. Кудряшовский, Береговая, 56, Кудряшовский. Минимальная стоимость в отеле 'PARUS Medical Resort&Spa' за ночь: от 12875₽",82.77766,55.085904
232,232,"Алатырь Новосибирск, ул. Блюхера, д. 13","Россия, 630078, Новосибирская область, Новосибирск, ул. Блюхера, д. 13, Новосибирск","Алатырь Новосибирск, ул. Блюхера, д. 13 по адресу Россия, 630078, Новосибирская область, Новосибирск, ул. Блюхера, д. 13, Новосибирск. Минимальная стоимость в отеле 'Алатырь Новосибирск, ул. Блюхера, д. 13' за ночь: от 3202₽",82.890318,54.984465
233,233,STOP-HOUSE,"ул. Зыряновская, дом 57/3, Новосибирск","STOP-HOUSE по адресу ул. Зыряновская, дом 57/3, Новосибирск. Минимальная стоимость в отеле 'STOP-HOUSE' за ночь: от 2260₽",82.940237,55.010808
234,234,Apartment Krasnye,"Красный проспект 66, Новосибирск","Apartment Krasnye по адресу Красный проспект 66, Новосибирск. Минимальная стоимость в отеле 'Apartment Krasnye' за ночь: от 3090₽",82.918049,55.040869
235,235,Apartment na Khmelnitskogo,"Street Bogdana Kmelnitskogo 33/1, Новосибирск","Apartment na Khmelnitskogo по адресу Street Bogdana Kmelnitskogo 33/1, Новосибирск. Минимальная стоимость в отеле 'Apartment na Khmelnitskogo' за ночь: от 3090₽",82.948241,55.073937
236,236,Apartment Novosibirsk,"Silver Springs 6, Новосибирск","Apartment Novosibirsk по адресу Silver Springs 6, Новосибирск. Минимальная стоимость в отеле 'Apartment Novosibirsk' за ночь: от 3090₽",55.255948,25.031141
237,237,U Vokzala,"Ul. Chelyuskintsev, 22 Stantsiya Metro Ploshtady Garina-Mihaylovskogo, Новосибирск","U Vokzala по адресу Ul. Chelyuskintsev, 22 Stantsiya Metro Ploshtady Garina-Mihaylovskogo, Новосибирск. Минимальная стоимость в отеле 'U Vokzala' за ночь: от 2260₽",82.904997,55.037608
238,238,Отель Пятница,"Улица Кирова 299, Новосибирск","Отель Пятница по адресу Улица Кирова 299, Новосибирск. Минимальная стоимость в отеле 'Отель Пятница' за ночь: от 3202₽",82.972819,55.005372
239,239,Ирис Апарт-Отель,"Ядринцевская ул., д.48, Новосибирск","Ирис Апарт-Отель по адресу Ядринцевская ул., д.48, Новосибирск. Минимальная стоимость в отеле 'Ирис Апарт-Отель' за ночь: от 2732₽",82.928937,55.033403
240,240,Yousinn (Юсинн) на улице Крылова,"ул. Крылова, 67А, Новосибирск","Yousinn (Юсинн) на улице Крылова по адресу ул. Крылова, 67А, Новосибирск. Минимальная стоимость в отеле 'Yousinn (Юсинн) на улице Крылова' за ночь: от 2748₽",82.938459,55.042932
241,241,Метелица,"Ленина 2Г, Бердск","Метелица по адресу Ленина 2Г, Бердск. Минимальная стоимость в отеле 'Метелица' за ночь: от 4440₽",83.070125,54.770604
242,242,Мираж,"1442 km of the Baykal State highway, Novosibirskaya region, Kochenevsky district, Прокудское","Мираж по адресу 1442 km of the Baykal State highway, Novosibirskaya region, Kochenevsky district, Прокудское. Минимальная стоимость в отеле 'Мираж' за ночь: от 4507₽",82.326985,54.964153
243,243,Motel Rubin,"Kirpichnaya Ulitsa 1/1, Новомошковское","Motel Rubin по адресу Kirpichnaya Ulitsa 1/1, Новомошковское. Минимальная стоимость в отеле 'Motel Rubin' за ночь: от 3122₽",24.717666,59.433883
244,244,Red avenue,"Krasny prospekt 179/1, 630123 Novosibirsk, Russia, Новосибирск","Red avenue по адресу Krasny prospekt 179/1, 630123 Novosibirsk, Russia, Новосибирск. Минимальная стоимость в отеле 'Red avenue' за ночь: от 3090₽",82.908787,55.070762
245,245,АлАнт на улице 1-я Чулымская,"ул. 1-я Чулымская, 112/3, Новосибирск","АлАнт на улице 1-я Чулымская по адресу ул. 1-я Чулымская, 112/3, Новосибирск. Минимальная стоимость в отеле 'АлАнт на улице 1-я Чулымская' за ночь: от 3667₽",82.889294,55.01437
246,246,АлАнт на улице Немировича-Данченко 146/3,"ул. Немировича-Данченко, 146/3, Новосибирск","АлАнт на улице Немировича-Данченко 146/3 по адресу ул. Немировича-Данченко, 146/3, Новосибирск. Минимальная стоимость в отеле 'АлАнт на улице Немировича-Данченко 146/3' за ночь: от 3375₽",82.915857,54.990566
247,247,Apartment Coastal,"Coastal 4, Novosibirsk, Ru., Новосибирск","Apartment Coastal по адресу Coastal 4, Novosibirsk, Ru., Новосибирск. Минимальная стоимость в отеле 'Apartment Coastal' за ночь: от 3090₽",82.92043,55.030204
248,248,Apart Studio Temis,"Prospekt Karla Marksa 11 Novosibirsk 630064,Prospekt Karla Marksa, Новосибирск","Apart Studio Temis по адресу Prospekt Karla Marksa 11 Novosibirsk 630064,Prospekt Karla Marksa, Новосибирск. Минимальная стоимость в отеле 'Apart Studio Temis' за ночь: от 3202₽",82.898026,54.985555
249,249,Hotel Barracuda,"Улица Тюленина 5, Новосибирск","Hotel Barracuda по адресу Улица Тюленина 5, Новосибирск. Минимальная стоимость в отеле 'Hotel Barracuda' за ночь: от 3806₽",82.952535,55.107231
250,250,Хостел Горького 85,"85 ulitsa Maksima Gorkogo 3этаж, Новосибирск","Хостел Горького 85 по адресу 85 ulitsa Maksima Gorkogo 3этаж, Новосибирск. Минимальная стоимость в отеле 'Хостел Горького 85' за ночь: от 2260₽",82.928083,55.028058
251,251,LiderHouse (ЛидерХаус) на улице Дуси Ковальчук,"ул. Дуси Ковальчук, 394, Новосибирск","LiderHouse (ЛидерХаус) на улице Дуси Ковальчук по адресу ул. Дуси Ковальчук, 394, Новосибирск. Минимальная стоимость в отеле 'LiderHouse (ЛидерХаус) на улице Дуси Ковальчук' за ночь: от 3202₽",82.926628,55.064602
252,252,На Самотечной 29а,"ул. Самотечная, 29а, Новосибирск","На Самотечной 29а по адресу ул. Самотечная, 29а, Новосибирск. Минимальная стоимость в отеле 'На Самотечной 29а' за ночь: от 3202₽",82.906605,55.011583
253,253,Жилое помещение на улице Кошурникова 5,"улица Кошурникова, д.5, Новосибирск","Жилое помещение на улице Кошурникова 5 по адресу улица Кошурникова, д.5, Новосибирск. Минимальная стоимость в отеле 'Жилое помещение на улице Кошурникова 5' за ночь: от 4952₽",82.956183,55.043309
254,254,Пихта Хаус Отель,"Воинская Улица 56, Новосибирск","Пихта Хаус Отель по адресу Воинская Улица 56, Новосибирск. Минимальная стоимость в отеле 'Пихта Хаус Отель' за ночь: от 3202₽",82.962839,55.024848
255,255,AAA Elita on Gogolya 38,"ul. Gogolya 38, Новосибирск","AAA Elita on Gogolya 38 по адресу ul. Gogolya 38, Новосибирск. Минимальная стоимость в отеле 'AAA Elita on Gogolya 38' за ночь: от 3202₽",82.92043,55.030204
256,256,АлАнт на улице Немировича-Данченко 148/2,"ул. Немировича-Данченко, 148/2, Новосибирск","АлАнт на улице Немировича-Данченко 148/2 по адресу ул. Немировича-Данченко, 148/2, Новосибирск. Минимальная стоимость в отеле 'АлАнт на улице Немировича-Данченко 148/2' за ночь: от 4000₽",82.917052,54.991062
257,257,Хостел на Красном,"Красный проспект 66, Новосибирск","Хостел на Красном по адресу Красный проспект 66, Новосибирск. Минимальная стоимость в отеле 'Хостел на Красном' за ночь: от 2260₽",82.918049,55.040869
258,258,Хостел Ной,"Инская Улица 56, Новосибирск","Хостел Ной по адресу Инская Улица 56, Новосибирск. Минимальная стоимость в отеле 'Хостел Ной' за ночь: от 2260₽",82.936572,55.009791
259,259,Жилые помещения Nsk,"Lenina Street 30/1 Novosibirsk 630004,Lenina Street, Новосибирск","Жилые помещения Nsk по адресу Lenina Street 30/1 Novosibirsk 630004,Lenina Street, Новосибирск. Минимальная стоимость в отеле 'Жилые помещения Nsk' за ночь: от 2260₽",82.906461,55.030467
260,260,Ордынка,"ул. Кирова, д.2/3, Ордынское","Ордынка по адресу ул. Кирова, д.2/3, Ордынское. Минимальная стоимость в отеле 'Ордынка' за ночь: от 4507₽",81.895874,54.372791
261,261,Стрелинка,"Новосибирская обл., Маслянинский район, р.п. Маслянино, Пеньково","Стрелинка по адресу Новосибирская обл., Маслянинский район, р.п. Маслянино, Пеньково. Минимальная стоимость в отеле 'Стрелинка' за ночь: от 4507₽",83.987404,54.335453
262,262,Welcome (Вэлком) на улице Героев Труда,"ул. Героев Труда, 11, Новосибирск","Welcome (Вэлком) на улице Героев Труда по адресу ул. Героев Труда, 11, Новосибирск. Минимальная стоимость в отеле 'Welcome (Вэлком) на улице Героев Труда' за ночь: от 3300₽",83.079719,54.862114
263,263,Жилое помещение на улице Сибревкома 9а,"улица Сибревкома, д.9а, Новосибирск","Жилое помещение на улице Сибревкома 9а по адресу улица Сибревкома, д.9а, Новосибирск. Минимальная стоимость в отеле 'Жилое помещение на улице Сибревкома 9а' за ночь: от 2260₽",82.932952,55.02124
264,264,Erunin Hotels Group Самотечная 29A,"Samotechnaya Ulitsa 29A Novosibirsk 630029,Samotechnaya Ulitsa, Новосибирск","Erunin Hotels Group Самотечная 29A по адресу Samotechnaya Ulitsa 29A Novosibirsk 630029,Samotechnaya Ulitsa, Новосибирск. Минимальная стоимость в отеле 'Erunin Hotels Group Самотечная 29A' за ночь: от 3202₽",82.906605,55.011583
265,265,Yousinn (Юсинн) на улице Дачной 40/1,"ул. Дачная, 40/1, Новосибирск","Yousinn (Юсинн) на улице Дачной 40/1 по адресу ул. Дачная, 40/1, Новосибирск. Минимальная стоимость в отеле 'Yousinn (Юсинн) на улице Дачной 40/1' за ночь: от 3006₽",82.904071,55.062411
266,266,Тихий центр на улице Ленина,"ул. Ленина, 18, Новосибирск","Тихий центр на улице Ленина по адресу ул. Ленина, 18, Новосибирск. Минимальная стоимость в отеле 'Тихий центр на улице Ленина' за ночь: от 3370₽",82.911671,55.029621
267,267,База Отдыха Стрелинка,"пос. Маслянино, ул. Горная, д. 13, Маслянино","База Отдыха Стрелинка по адресу пос. Маслянино, ул. Горная, д. 13, Маслянино. Минимальная стоимость в отеле 'База Отдыха Стрелинка' за ночь: от 4507₽",84.236273,54.353691
268,268,Yousinn (Юсинн) на улице Бориса Богаткова 213,"ул. Бориса Богаткова, 213, Новосибирск","Yousinn (Юсинн) на улице Бориса Богаткова 213 по адресу ул. Бориса Богаткова, 213, Новосибирск. Минимальная стоимость в отеле 'Yousinn (Юсинн) на улице Бориса Богаткова 213' за ночь: от 3108₽",82.971696,55.039068
269,269,Отель 6-12-24 Аэропорт Толмачево,"проспект Мозжерина, д.101, Обь","Отель 6-12-24 Аэропорт Толмачево по адресу проспект Мозжерина, д.101, Обь. Минимальная стоимость в отеле 'Отель 6-12-24 Аэропорт Толмачево' за ночь: от 5411₽",82.673267,55.007994
270,270,Apartment Na Michurina,"Michurina, 20/1, Новосибирск","Apartment Na Michurina по адресу Michurina, 20/1, Новосибирск. Минимальная стоимость в отеле 'Apartment Na Michurina' за ночь: от 3090₽",82.922334,55.045718
271,271,Comfort Inn Hotel,"Khmelnitskogo Ulitsa, 96, Новосибирск","Comfort Inn Hotel по адресу Khmelnitskogo Ulitsa, 96, Новосибирск. Минимальная стоимость в отеле 'Comfort Inn Hotel' за ночь: от 5578₽",82.979242,55.094678
272,272,"Элитная двухкомнтная квартира на улице Ядринцевской возле оперного театра, метро площадь Ленина","улица Ядринцевская, д. 18, Новосибирск","Элитная двухкомнтная квартира на улице Ядринцевской возле оперного театра, метро площадь Ленина по адресу улица Ядринцевская, д. 18, Новосибирск. Минимальная стоимость в отеле 'Элитная двухкомнтная квартира на улице Ядринцевской возле оперного театра, метро площадь Ленина' за ночь: от 8914₽",82.924697,55.033032
273,273,Гарден Эппл,"ул. Восточный Поселок, д. 9, лит. А, Новосибирск","Гарден Эппл по адресу ул. Восточный Поселок, д. 9, лит. А, Новосибирск. Минимальная стоимость в отеле 'Гарден Эппл' за ночь: от 3202₽",82.867231,54.99996
274,274,LiderHouse (ЛидерХаус) на улице Кошурникова,"ул. Кошурникова, 47, Новосибирск","LiderHouse (ЛидерХаус) на улице Кошурникова по адресу ул. Кошурникова, 47, Новосибирск. Минимальная стоимость в отеле 'LiderHouse (ЛидерХаус) на улице Кошурникова' за ночь: от 3202₽",82.979458,55.036948
275,275,Myhomehotel On Shevchenko 15/127,"Shevchenko Ulitsa 15, Новосибирск","Myhomehotel On Shevchenko 15/127 по адресу Shevchenko Ulitsa 15, Новосибирск. Минимальная стоимость в отеле 'Myhomehotel On Shevchenko 15/127' за ночь: от 3202₽",82.933788,55.016394
276,276,"Na Chelyuskintsev Apartmetns,14","ulitsa Chelyuskincev 14, Novosibirsk, Russia, Новосибирск","Na Chelyuskintsev Apartmetns,14 по адресу ulitsa Chelyuskincev 14, Novosibirsk, Russia, Новосибирск. Минимальная стоимость в отеле 'Na Chelyuskintsev Apartmetns,14' за ночь: от 3202₽",82.92043,55.030204
277,277,Хостел Перекрёсток,"улица Переселенческая, д. 3, Новосибирск","Хостел Перекрёсток по адресу улица Переселенческая, д. 3, Новосибирск. Минимальная стоимость в отеле 'Хостел Перекрёсток' за ночь: от 2260₽",82.985144,54.997714
278,278,Apartamenty Svetlica Gogolya 14,"Ulitsa Gogolya 14, 630000 Novosibirsk, Russia, Новосибирск","Apartamenty Svetlica Gogolya 14 по адресу Ulitsa Gogolya 14, 630000 Novosibirsk, Russia, Новосибирск. Минимальная стоимость в отеле 'Apartamenty Svetlica Gogolya 14' за ночь: от 3090₽",82.919397,55.041751
279,279,AquaApart (АкваАпарт) на улице Ясный Берег 25,"ул. Ясный берег, 25, Новосибирск","AquaApart (АкваАпарт) на улице Ясный Берег 25 по адресу ул. Ясный берег, 25, Новосибирск. Минимальная стоимость в отеле 'AquaApart (АкваАпарт) на улице Ясный Берег 25' за ночь: от 3476₽",82.896867,55.014695
280,280,Edelweiss Hotel,"Ulitsa Zhukovskogo 24 Novosibirsk 630123,Ulitsa Zhukovskogo, Новосибирск","Edelweiss Hotel по адресу Ulitsa Zhukovskogo 24 Novosibirsk 630123,Ulitsa Zhukovskogo, Новосибирск. Минимальная стоимость в отеле 'Edelweiss Hotel' за ночь: от 3202₽",82.896256,55.079055
281,281,Жилое помещение Творческий,"Вокзальная магистраль 4/2, Новосибирск","Жилое помещение Творческий по адресу Вокзальная магистраль 4/2, Новосибирск. Минимальная стоимость в отеле 'Жилое помещение Творческий' за ночь: от 3202₽",82.903766,55.033393
282,282,Oazis apart (Оазис апарт) на улице Покатная 122,"ул. Покатная, 122, Новосибирск","Oazis apart (Оазис апарт) на улице Покатная 122 по адресу ул. Покатная, 122, Новосибирск. Минимальная стоимость в отеле 'Oazis apart (Оазис апарт) на улице Покатная 122' за ночь: от 3553₽",82.950523,55.025472
283,283,Хостел «Проспект»,"Красный пр-т, 153-22, Новосибирск","Хостел «Проспект» по адресу Красный пр-т, 153-22, Новосибирск. Минимальная стоимость в отеле 'Хостел «Проспект»' за ночь: от 2260₽",82.91186,55.057131
284,284,Yousinn (Юсинн) на улице Дачной 40/2,"ул. Дачная, 40/2, Новосибирск","Yousinn (Юсинн) на улице Дачной 40/2 по адресу ул. Дачная, 40/2, Новосибирск. Минимальная стоимость в отеле 'Yousinn (Юсинн) на улице Дачной 40/2' за ночь: от 2648₽",82.905086,55.061539
285,285,АлАнт на улице Немировича-Данченко 122/3,"ул. Немировича-Данченко, 122/3, Новосибирск","АлАнт на улице Немировича-Данченко 122/3 по адресу ул. Немировича-Данченко, 122/3, Новосибирск. Минимальная стоимость в отеле 'АлАнт на улице Немировича-Данченко 122/3' за ночь: от 4115₽",82.914061,54.978359
286,286,АлАнт на улице Покатная,"ул. Покатная, 55А, Новосибирск","АлАнт на улице Покатная по адресу ул. Покатная, 55А, Новосибирск. Минимальная стоимость в отеле 'АлАнт на улице Покатная' за ночь: от 4493₽",82.948376,55.026092
287,287,Apartment DomSna,"ul.Serzhanta Korotayeva 1, 630033 Novosibirsk, Russia, Новосибирск","Apartment DomSna по адресу ul.Serzhanta Korotayeva 1, 630033 Novosibirsk, Russia, Новосибирск. Минимальная стоимость в отеле 'Apartment DomSna' за ночь: от 3090₽",82.956757,54.958172
288,288,Отель Horizon Patio,"Бердский тупик 10, Новосибирск","Отель Horizon Patio по адресу Бердский тупик 10, Новосибирск. Минимальная стоимость в отеле 'Отель Horizon Patio' за ночь: от 3202₽",83.056327,54.831136
289,289,Жилое помещение Uytnyi,"ul. Soyuza Molodezhi 2-aya D31 Novosibirsk 630082,ul. Soyuza Molodezhi, Новосибирск","Жилое помещение Uytnyi по адресу ul. Soyuza Molodezhi 2-aya D31 Novosibirsk 630082,ul. Soyuza Molodezhi, Новосибирск. Минимальная стоимость в отеле 'Жилое помещение Uytnyi' за ночь: от 3202₽",82.92043,55.030204
290,290,Hotel Mafia,"Rekkunovskaya 6/9 633000 Berdsk Novosibirsk region, Бердск","Hotel Mafia по адресу Rekkunovskaya 6/9 633000 Berdsk Novosibirsk region, Бердск. Минимальная стоимость в отеле 'Hotel Mafia' за ночь: от 4440₽",83.107135,54.758288
291,291,Yousinn (Юсинн) на Вокзальной магистрали,"Вокзальная магистраль, 17, Новосибирск","Yousinn (Юсинн) на Вокзальной магистрали по адресу Вокзальная магистраль, 17, Новосибирск. Минимальная стоимость в отеле 'Yousinn (Юсинн) на Вокзальной магистрали' за ночь: от 3514₽",82.913135,55.033419
292,292,Жилое помещение Однокомнатная квартира в центре Ленинского района,"улица Серафимовича, д.8, Новосибирск","Жилое помещение Однокомнатная квартира в центре Ленинского района по адресу улица Серафимовича, д.8, Новосибирск. Минимальная стоимость в отеле 'Жилое помещение Однокомнатная квартира в центре Ленинского района' за ночь: от 3067₽",82.880158,54.98088
293,293,Vystavochnaya Apartment,"Vystavochnaya Ul., 16, Новосибирск","Vystavochnaya Apartment по адресу Vystavochnaya Ul., 16, Новосибирск. Минимальная стоимость в отеле 'Vystavochnaya Apartment' за ночь: от 3090₽",82.891136,54.9885
294,294,AAA Elita on Chaplygina 93,"Чаплыгина,93, Новосибирск","AAA Elita on Chaplygina 93 по адресу Чаплыгина,93, Новосибирск. Минимальная стоимость в отеле 'AAA Elita on Chaplygina 93' за ночь: от 3202₽",82.928137,55.026866
295,295,Apartment on Prospekt Karla Marksa 11,"11 prospekt Karla Marksa, Новосибирск","Apartment on Prospekt Karla Marksa 11 по адресу 11 prospekt Karla Marksa, Новосибирск. Минимальная стоимость в отеле 'Apartment on Prospekt Karla Marksa 11' за ночь: от 3090₽",82.898026,54.985555
296,296,Dacha Apartment,"Dacha 23/5, Новосибирск","Dacha Apartment по адресу Dacha 23/5, Новосибирск. Минимальная стоимость в отеле 'Dacha Apartment' за ночь: от 3090₽",82.793174,54.863741
297,297,Феникс центральная,"ул. Горького 28, Болотное","Феникс центральная по адресу ул. Горького 28, Болотное. Минимальная стоимость в отеле 'Феникс центральная' за ночь: от 3122₽",84.383965,55.669072
298,298,FlaNsk (ФлаНск) на Романова,"ул. Романова, 60/1, Новосибирск","FlaNsk (ФлаНск) на Романова по адресу ул. Романова, 60/1, Новосибирск. Минимальная стоимость в отеле 'FlaNsk (ФлаНск) на Романова' за ночь: от 3134₽",82.930778,55.035158
299,299,Hostel Homeliness,"Stroitelnaya Street 19, Ob, Russia, Обь","Hostel Homeliness по адресу Stroitelnaya Street 19, Ob, Russia, Обь. Минимальная стоимость в отеле 'Hostel Homeliness' за ночь: от 2476₽",82.692859,54.995307
300,300,Хуторок,"федеральная трасса М51, 1281 км, Каргат","Хуторок по адресу федеральная трасса М51, 1281 км, Каргат. Минимальная стоимость в отеле 'Хуторок' за ночь: от 3122₽",80.296289,55.215205
301,301,Noy,"632334 Russia, Novosibirsk region, Barabinsk, st. Karl Marx, 100, Барабинск","Noy по адресу 632334 Russia, Novosibirsk region, Barabinsk, st. Karl Marx, 100, Барабинск. Минимальная стоимость в отеле 'Noy' за ночь: от 3226₽",78.341923,55.350412
302,302,Quattro,"ул. Максима Горького, д. 51, Новосибирск","Quattro по адресу ул. Максима Горького, д. 51, Новосибирск. Минимальная стоимость в отеле 'Quattro' за ночь: от 3202₽",82.914626,55.026855
303,303,Хостел Ретро,"улица Ленина, д.18, Новосибирск","Хостел Ретро по адресу улица Ленина, д.18, Новосибирск. Минимальная стоимость в отеле 'Хостел Ретро' за ночь: от 2260₽",82.911671,55.029621
304,304,Academy,"Vatutina 57 Novosibirsk 630087,Vatutina, Новосибирск","Academy по адресу Vatutina 57 Novosibirsk 630087,Vatutina, Новосибирск. Минимальная стоимость в отеле 'Academy' за ночь: от 3202₽",82.906497,54.979604
305,305,Apartment Gorsky estate,"Gorski district 2, Новосибирск","Apartment Gorsky estate по адресу Gorski district 2, Новосибирск. Минимальная стоимость в отеле 'Apartment Gorsky estate' за ночь: от 3090₽",82.92043,55.030204
306,306,Fine O'Clock Academ,"630090, Sibirskiy federal'niy okrug, Novosibirskaya oblast', Novosibirsk, ulitsa Tereshkovoy 12A, Новосибирск","Fine O'Clock Academ по адресу 630090, Sibirskiy federal'niy okrug, Novosibirskaya oblast', Novosibirsk, ulitsa Tereshkovoy 12A, Новосибирск. Минимальная стоимость в отеле 'Fine O'Clock Academ' за ночь: от 3202₽",83.103596,54.841739
307,307,Жилые помещения Magistral N,"ul. Vokzalnaya magistral', 3к1, Novosibirsk, Novosibirskaya oblast', Russia, 630004, Новосибирск","Жилые помещения Magistral N по адресу ul. Vokzalnaya magistral', 3к1, Novosibirsk, Novosibirskaya oblast', Russia, 630004, Новосибирск. Минимальная стоимость в отеле 'Жилые помещения Magistral N' за ночь: от 3202₽",82.902526,55.034858
308,308,Hostel Nakhodka,"ul. Narymskaya 17/1 Novosibirsk 630132,ul. Narymskaya, Новосибирск","Hostel Nakhodka по адресу ul. Narymskaya 17/1 Novosibirsk 630132,ul. Narymskaya, Новосибирск. Минимальная стоимость в отеле 'Hostel Nakhodka' за ночь: от 2260₽",82.906578,55.041044
309,309,Авиатор,"ул. Авиастроителей. д. 1/3, Новосибирск","Авиатор по адресу ул. Авиастроителей. д. 1/3, Новосибирск. Минимальная стоимость в отеле 'Авиатор' за ночь: от 3202₽",82.960009,55.066989
310,310,Отель Гостинично-Развлекательный Комплекс Отдых,"ул. Деповская, 1а, Карасук","Отель Гостинично-Развлекательный Комплекс Отдых по адресу ул. Деповская, 1а, Карасук. Минимальная стоимость в отеле 'Отель Гостинично-Развлекательный Комплекс Отдых' за ночь: от 2171₽",78.028061,53.747299
311,311,Посейдон,"Южный микрорайон, 55а к1, Искитим","Посейдон по адресу Южный микрорайон, 55а к1, Искитим. Минимальная стоимость в отеле 'Посейдон' за ночь: от 3590₽",83.274114,54.6167
312,312,Рубин,"ул. 5-я Кирпичная Горка, 1/2, Мошково","Рубин по адресу ул. 5-я Кирпичная Горка, 1/2, Мошково. Минимальная стоимость в отеле 'Рубин' за ночь: от 4507₽",83.573029,55.287794
313,313,Три Версты,"ул. Планировочная, 9а, Новосибирск","Три Версты по адресу ул. Планировочная, 9а, Новосибирск. Минимальная стоимость в отеле 'Три Версты' за ночь: от 2452₽",82.875837,54.995674
314,314,Apartment on Gogolya 11a,"ul. Gogolya, 11А, Novosibirsk, Novosibirskaya oblast', Russia, 630091, Новосибирск","Apartment on Gogolya 11a по адресу ul. Gogolya, 11А, Novosibirsk, Novosibirskaya oblast', Russia, 630091, Новосибирск. Минимальная стоимость в отеле 'Apartment on Gogolya 11a' за ночь: от 3090₽",82.92043,55.030204
315,315,Бюро Апартаментов Сказка,"Улица Вокзальная Магистраль 5, Новосибирск","Бюро Апартаментов Сказка по адресу Улица Вокзальная Магистраль 5, Новосибирск. Минимальная стоимость в отеле 'Бюро Апартаментов Сказка' за ночь: от 3090₽",82.905545,55.034131
316,316,Мини-отель Евразия,"улица Коммунистическая, д.2, Новосибирск","Мини-отель Евразия по адресу улица Коммунистическая, д.2, Новосибирск. Минимальная стоимость в отеле 'Мини-отель Евразия' за ночь: от 2476₽",82.91292,55.022438
317,317,Феникс,"ул. Турнаевская, д.36г, Болотное","Феникс по адресу ул. Турнаевская, д.36г, Болотное. Минимальная стоимость в отеле 'Феникс' за ночь: от 3122₽",84.406315,55.682625
318,318,Evropeysky Mini-Hotel,"Ulitsa Dusi Kovalchuk 406 Building 1,Ulitsa Dusi Kovalchuk, Новосибирск","Evropeysky Mini-Hotel по адресу Ulitsa Dusi Kovalchuk 406 Building 1,Ulitsa Dusi Kovalchuk, Новосибирск. Минимальная стоимость в отеле 'Evropeysky Mini-Hotel' за ночь: от 3202₽",82.930203,55.064896
319,319,Парк-отель «ЛесНица»,"Морозово, 1/1, Новосибирск","Парк-отель «ЛесНица» по адресу Морозово, 1/1, Новосибирск. Минимальная стоимость в отеле 'Парк-отель «ЛесНица»' за ночь: от 8328₽",83.222479,54.768812
320,320,"Алатырь Новосибирск, ул. Ватутина, д. 15","Россия, 630078, Новосибирская область, Новосибирск, ул. Ватутина, д. 15, Новосибирск","Алатырь Новосибирск, ул. Ватутина, д. 15 по адресу Россия, 630078, Новосибирская область, Новосибирск, ул. Ватутина, д. 15, Новосибирск. Минимальная стоимость в отеле 'Алатырь Новосибирск, ул. Ватутина, д. 15' за ночь: от 3202₽",82.889878,54.98726
321,321,Санаторий Рассвет,"улица Зелёная Роща, д.9/1, Бердск","Санаторий Рассвет по адресу улица Зелёная Роща, д.9/1, Бердск. Минимальная стоимость в отеле 'Санаторий Рассвет' за ночь: от 10704₽",83.030096,54.723954
322,322,Гостевой дом Вера,"садоводческое некоммерческое товарищество Вера, д.581, Восток","Гостевой дом Вера по адресу садоводческое некоммерческое товарищество Вера, д.581, Восток. Минимальная стоимость в отеле 'Гостевой дом Вера' за ночь: от 11543₽",135.079822,48.302849
323,323,Жилые помещения Wildriver,"ul. Lobova, 52, Novosibirsk, Novosibirskaya oblast', Russia, 630028, Новосибирск","Жилые помещения Wildriver по адресу ul. Lobova, 52, Novosibirsk, Novosibirskaya oblast', Russia, 630028, Новосибирск. Минимальная стоимость в отеле 'Жилые помещения Wildriver' за ночь: от 2260₽",82.983976,55.004473
324,324,Загородный,"ул. Центральная, 9а, Новосибирск","Загородный по адресу ул. Центральная, 9а, Новосибирск. Минимальная стоимость в отеле 'Загородный' за ночь: от 4220₽",83.073467,54.936776
325,325,Отель Antey,"улица Писарева, д.89, Новосибирск","Отель Antey по адресу улица Писарева, д.89, Новосибирск. Минимальная стоимость в отеле 'Отель Antey' за ночь: от 2853₽",82.928937,55.050029
326,326,Хостел Апостол,"улица Саввы Кожевникова, д.29/1, Новосибирск","Хостел Апостол по адресу улица Саввы Кожевникова, д.29/1, Новосибирск. Минимальная стоимость в отеле 'Хостел Апостол' за ночь: от 1557₽",82.960512,54.968246
327,327,Хостел Aprt Studio Temis,"проспект Карла Маркса, 11, Новосибирск","Хостел Aprt Studio Temis по адресу проспект Карла Маркса, 11, Новосибирск. Минимальная стоимость в отеле 'Хостел Aprt Studio Temis' за ночь: от 1500₽",82.898026,54.985555
328,328,Отель Дискавери,"улица Войкова, д.54, Новосибирск","Отель Дискавери по адресу улица Войкова, д.54, Новосибирск. Минимальная стоимость в отеле 'Отель Дискавери' за ночь: от 3000₽",82.94808,55.050844
329,329,Фанки (FunKey) Хостел,"Россия, 630091, Новосибирская область, Новосибирск, ул. Фрунзе, д. 5/2, Новосибирск","Фанки (FunKey) Хостел по адресу Россия, 630091, Новосибирская область, Новосибирск, ул. Фрунзе, д. 5/2, Новосибирск. Минимальная стоимость в отеле 'Фанки (FunKey) Хостел' за ночь: от 1776₽",82.916333,55.036943
330,330,Хостел Авитель,"улица Ленина, д.83, Новосибирск","Хостел Авитель по адресу улица Ленина, д.83, Новосибирск. Минимальная стоимость в отеле 'Хостел Авитель' за ночь: от 2260₽",82.894289,55.040183
331,331,Отель Визит,"улица Выборная, д.122, Новосибирск","Отель Визит по адресу улица Выборная, д.122, Новосибирск. Минимальная стоимость в отеле 'Отель Визит' за ночь: от 1500₽",83.010576,54.99916
332,332,Мини-отель Корона,"улица Толстого, 242, Новосибирск","Мини-отель Корона по адресу улица Толстого, 242, Новосибирск. Минимальная стоимость в отеле 'Мини-отель Корона' за ночь: от 2529₽",82.970627,55.009022
333,333,Отель Миротель,"площадь Карла Маркса, д.1/1, Новосибирск","Отель Миротель по адресу площадь Карла Маркса, д.1/1, Новосибирск. Минимальная стоимость в отеле 'Отель Миротель' за ночь: от 5949₽",82.897612,54.982073
334,334,Мини-Отель Элегант,"улица Воинская, д.60, Новосибирск","Мини-Отель Элегант по адресу улица Воинская, д.60, Новосибирск. Минимальная стоимость в отеле 'Мини-Отель Элегант' за ночь: от 2400₽",82.963037,55.024528
335,335,Мини-Отель MAXROOMS Global Sky Novosibirsk,"улица 25 лет Октября, д.9, 17 этаж,, Новосибирск","Мини-Отель MAXROOMS Global Sky Novosibirsk по адресу улица 25 лет Октября, д.9, 17 этаж,, Новосибирск. Минимальная стоимость в отеле 'Мини-Отель MAXROOMS Global Sky Novosibirsk' за ночь: от 2415₽",82.965525,55.071948
336,336,Отель Пегас,"улица Николая Островского, д.181, Новосибирск","Отель Пегас по адресу улица Николая Островского, д.181, Новосибирск. Минимальная стоимость в отеле 'Отель Пегас' за ночь: от 2485₽",82.944711,55.052371
337,337,Хостел Смородина,"улица Семьи Шамшиных, д.30, Новосибирск","Хостел Смородина по адресу улица Семьи Шамшиных, д.30, Новосибирск. Минимальная стоимость в отеле 'Хостел Смородина' за ночь: от 1439₽",82.932674,55.032629
338,338,Гостиница Уютная,"Белинского ул., д. 143, Новосибирск","Гостиница Уютная по адресу Белинского ул., д. 143, Новосибирск. Минимальная стоимость в отеле 'Гостиница Уютная' за ночь: от 2000₽",82.958617,55.018066
339,339,Хостел Планета на Фрунзе,"Россия, Новосибирская область, Новосибирск, ул. Фрунзе, д. 2Б, Новосибирск","Хостел Планета на Фрунзе по адресу Россия, Новосибирская область, Новосибирск, ул. Фрунзе, д. 2Б, Новосибирск. Минимальная стоимость в отеле 'Хостел Планета на Фрунзе' за ночь: от 1350₽",82.917241,55.035751
340,340,Мини-отель Якутия,"улица Большевистская, 103, Новосибирск","Мини-отель Якутия по адресу улица Большевистская, 103, Новосибирск. Минимальная стоимость в отеле 'Мини-отель Якутия' за ночь: от 2771₽",82.946328,55.004582
341,341,Хостел Альтаир,"Стартовая Улица 4, Новосибирск","Хостел Альтаир по адресу Стартовая Улица 4, Новосибирск. Минимальная стоимость в отеле 'Хостел Альтаир' за ночь: от 2260₽",82.907278,54.99665
342,342,Emodji Hostel,"ul. Sibirskaia 33 kvartira 10,ul. Sibirskaia, Новосибирск","Emodji Hostel по адресу ul. Sibirskaia 33 kvartira 10,ul. Sibirskaia, Новосибирск. Минимальная стоимость в отеле 'Emodji Hostel' за ночь: от 2260₽",82.92043,55.030204
343,343,Eurasia,"2 Kommunisticheskaya st., Новосибирск","Eurasia по адресу 2 Kommunisticheskaya st., Новосибирск. Минимальная стоимость в отеле 'Eurasia' за ночь: от 3202₽",82.91292,55.022438
344,344,Nakhodka,"ulitsa Narimskaya, 17/1, Novosibirsk, Russia, Новосибирск","Nakhodka по адресу ulitsa Narimskaya, 17/1, Novosibirsk, Russia, Новосибирск. Минимальная стоимость в отеле 'Nakhodka' за ночь: от 3202₽",82.92043,55.030204
345,345,Хостел Вояж,"Улица Каменская 84В-46, Новосибирск","Хостел Вояж по адресу Улица Каменская 84В-46, Новосибирск. Минимальная стоимость в отеле 'Хостел Вояж' за ночь: от 2260₽",82.925218,55.043685
346,346,Евразия,"ул. Коммунистическая, д.2, Новосибирск","Евразия по адресу ул. Коммунистическая, д.2, Новосибирск. Минимальная стоимость в отеле 'Евразия' за ночь: от 2249₽",82.91292,55.022438
347,347,Отель Радуга,"Гусинобродское шоссе, д.41/1, Новосибирск","Отель Радуга по адресу Гусинобродское шоссе, д.41/1, Новосибирск. Минимальная стоимость в отеле 'Отель Радуга' за ночь: от 3500₽",83.033087,55.042045
348,348,Myhomehotel Na Ulitse Ordzhonikidze 30,"Ulitsa Ordzhonikidze 30, Новосибирск","Myhomehotel Na Ulitse Ordzhonikidze 30 по адресу Ulitsa Ordzhonikidze 30, Новосибирск. Минимальная стоимость в отеле 'Myhomehotel Na Ulitse Ordzhonikidze 30' за ночь: от 3202₽",82.931057,55.031659
349,349,Aparthotel Podkova,"Ulitsa Sovetskaya 285, 633210 Iskitim, Russia, Искитим","Aparthotel Podkova по адресу Ulitsa Sovetskaya 285, 633210 Iskitim, Russia, Искитим. Минимальная стоимость в отеле 'Aparthotel Podkova' за ночь: от 4507₽",83.309679,54.631816
350,350,Podushka Lyuks na Sibirskoi 13,"ul. Sibirskaya 13 Novosibirsk,ul. Sibirskaya, Новосибирск","Podushka Lyuks na Sibirskoi 13 по адресу ul. Sibirskaya 13 Novosibirsk,ul. Sibirskaya, Новосибирск. Минимальная стоимость в отеле 'Podushka Lyuks na Sibirskoi 13' за ночь: от 3202₽",82.739617,54.989615
351,351,Рассвет,"ул. Комсомольская, 5, Чаны","Рассвет по адресу ул. Комсомольская, 5, Чаны. Минимальная стоимость в отеле 'Рассвет' за ночь: от 3122₽",76.7546,55.30664
352,352,Жилые помещения Novo,"Улица Красный проспект 153а офис 1n, Новосибирск","Жилые помещения Novo по адресу Улица Красный проспект 153а офис 1n, Новосибирск. Минимальная стоимость в отеле 'Жилые помещения Novo' за ночь: от 3202₽",82.908769,55.055764
353,353,Хостел Warm corner,"улица Усадебная, д. 7, Обь","Хостел Warm corner по адресу улица Усадебная, д. 7, Обь. Минимальная стоимость в отеле 'Хостел Warm corner' за ночь: от 2476₽",36.984,55.834922
354,354,Юбилейная,"квартал 12, дом 3, Куйбышев","Юбилейная по адресу квартал 12, дом 3, Куйбышев. Минимальная стоимость в отеле 'Юбилейная' за ночь: от 4507₽",78.313779,55.445212
355,355,База отдыха Зеленый Дом,"улица Боровая, д.2, Мирный","База отдыха Зеленый Дом по адресу улица Боровая, д.2, Мирный. Минимальная стоимость в отеле 'База отдыха Зеленый Дом' за ночь: от 6412₽",85.098548,56.432152
356,356,A 54 Hostel,"проспект Карла Маркса,11, Новосибирск","A 54 Hostel по адресу проспект Карла Маркса,11, Новосибирск. Минимальная стоимость в отеле 'A 54 Hostel' за ночь: от 2260₽",82.898026,54.985555
357,357,Гостиница Агат,"ул. Кольцово, 19, Новосибирск","Гостиница Агат по адресу ул. Кольцово, 19, Новосибирск. Минимальная стоимость в отеле 'Гостиница Агат' за ночь: от 3202₽",82.92043,55.030204
358,358,Na Ploshchadi Marksa Apartment,"Ulitsa Vystavochnaya 16, Novosibirsk, Novosibirsk, Novosibirsk, Новосибирск","Na Ploshchadi Marksa Apartment по адресу Ulitsa Vystavochnaya 16, Novosibirsk, Novosibirsk, Novosibirsk, Новосибирск. Минимальная стоимость в отеле 'Na Ploshchadi Marksa Apartment' за ночь: от 3090₽",82.891136,54.9885
359,359,Dosstor,"Krasnoarmeyskaya Ulitsa 97 Novosibirsk 630008,Krasnoarmeyskaya Ulitsa, Новосибирск","Dosstor по адресу Krasnoarmeyskaya Ulitsa 97 Novosibirsk 630008,Krasnoarmeyskaya Ulitsa, Новосибирск. Минимальная стоимость в отеле 'Dosstor' за ночь: от 3202₽",82.969801,55.01755
360,360,Петров Двор,"ул. Восход, д.66, лит.А, Новосибирск","Петров Двор по адресу ул. Восход, д.66, лит.А, Новосибирск. Минимальная стоимость в отеле 'Петров Двор' за ночь: от 3202₽",82.953479,55.021777
361,361,Yousinn (Юсинн) на улице Иванова 26,"ул. Иванова, 26, Новосибирск","Yousinn (Юсинн) на улице Иванова 26 по адресу ул. Иванова, 26, Новосибирск. Минимальная стоимость в отеле 'Yousinn (Юсинн) на улице Иванова 26' за ночь: от 2388₽",83.089609,54.866751
362,362,Оазис,"Караканский бор, Абрашино","Оазис по адресу Караканский бор, Абрашино. Минимальная стоимость в отеле 'Оазис' за ночь: от 4507₽",82.295597,54.395563
363,363,Парк Хостел,"ул. Ядринцевская, д. 18, Новосибирск","Парк Хостел по адресу ул. Ядринцевская, д. 18, Новосибирск. Минимальная стоимость в отеле 'Парк Хостел' за ночь: от 2260₽",82.924697,55.033032
364,364,"Алатырь Новосибирск, пер. 1-й Римского-Корсака, д. 5","Россия, 630054, Новосибирская область, Новосибирск, пер. 1-й Римского-Корсака, д. 5, Новосибирск","Алатырь Новосибирск, пер. 1-й Римского-Корсака, д. 5 по адресу Россия, 630054, Новосибирская область, Новосибирск, пер. 1-й Римского-Корсака, д. 5, Новосибирск. Минимальная стоимость в отеле 'Алатырь Новосибирск, пер. 1-й Римского-Корсака, д. 5' за ночь: от 3202₽",82.882781,54.980358
365,365,Мини-отель Сиботель,"Улица Арбузова, д. 10, Новосибирск","Мини-отель Сиботель по адресу Улица Арбузова, д. 10, Новосибирск. Минимальная стоимость в отеле 'Мини-отель Сиботель' за ночь: от 2452₽",83.099581,54.868389
366,366,Отель Smart Hotel KDO Новосибирск,"улица Дмитрия Шамшурина, д. 43, Новосибирск","Отель Smart Hotel KDO Новосибирск по адресу улица Дмитрия Шамшурина, д. 43, Новосибирск. Минимальная стоимость в отеле 'Отель Smart Hotel KDO Новосибирск' за ночь: от 3747₽",82.896184,55.03573
367,367,Жемчужина,"ул. Жуковского, д. 8, Новосибирск","Жемчужина по адресу ул. Жуковского, д. 8, Новосибирск. Минимальная стоимость в отеле 'Жемчужина' за ночь: от 3202₽",82.896364,55.080648
368,368,Apartment Derzhavina,"Державина 11, кв 47, Новосибирск","Apartment Derzhavina по адресу Державина 11, кв 47, Новосибирск. Минимальная стоимость в отеле 'Apartment Derzhavina' за ночь: от 3090₽",82.927679,55.039739
369,369,Aparthotel Lazurnyy,"Lazurnaya Street 28, Novosibirsk, Новосибирская обл., Russia, 630133, Новосибирск","Aparthotel Lazurnyy по адресу Lazurnaya Street 28, Novosibirsk, Новосибирская обл., Russia, 630133, Новосибирск. Минимальная стоимость в отеле 'Aparthotel Lazurnyy' за ночь: от 2732₽",82.92043,55.030204
370,370,Диван и чемодан на улице Семьи Шамшиных,"ул. Семьи Шамшиных, 18, Новосибирск","Диван и чемодан на улице Семьи Шамшиных по адресу ул. Семьи Шамшиных, 18, Новосибирск. Минимальная стоимость в отеле 'Диван и чемодан на улице Семьи Шамшиных' за ночь: от 2309₽",82.933464,55.028723
371,371,Хостел GoodNighter,"улица Красина, д.56, Новосибирск","Хостел GoodNighter по адресу улица Красина, д.56, Новосибирск. Минимальная стоимость в отеле 'Хостел GoodNighter' за ночь: от 2260₽",82.963315,55.042973
372,372,Sezon,"Serebrennikovskaya ul., 2/1, Novosibirsk, Novosibirsk Oblast, Russia, 630007, Новосибирск","Sezon по адресу Serebrennikovskaya ul., 2/1, Novosibirsk, Novosibirsk Oblast, Russia, 630007, Новосибирск. Минимальная стоимость в отеле 'Sezon' за ночь: от 3202₽",82.928281,55.016992
373,373,Erunin Hotels Group на Далидовича 35 (Ерунин хотелс групп),"ул. Далидовича, 35, Новосибирск","Erunin Hotels Group на Далидовича 35 (Ерунин хотелс групп) по адресу ул. Далидовича, 35, Новосибирск. Минимальная стоимость в отеле 'Erunin Hotels Group на Далидовича 35 (Ерунин хотелс групп)' за ночь: от 3200₽",82.958491,55.021571
374,374,Отель Оазис,"улица 1-я Юргинская, д.64, Новосибирск","Отель Оазис по адресу улица 1-я Юргинская, д.64, Новосибирск. Минимальная стоимость в отеле 'Отель Оазис' за ночь: от 3202₽",82.996005,55.054728
375,375,Русь,"ул. Промышленная, д.1, Купино","Русь по адресу ул. Промышленная, д.1, Купино. Минимальная стоимость в отеле 'Русь' за ночь: от 3122₽",77.295709,54.353654
376,376,Мини-отель У Петровича,"Омский тракт, д.1, Обь","Мини-отель У Петровича по адресу Омский тракт, д.1, Обь. Минимальная стоимость в отеле 'Мини-отель У Петровича' за ночь: от 2600₽",82.656981,54.999552
377,377,Apartment on Dusi Kovalchuk,"ul. Dusi Kovalchuk, 179/1, 630049 Novosibirsk, Russia, Новосибирск","Apartment on Dusi Kovalchuk по адресу ul. Dusi Kovalchuk, 179/1, 630049 Novosibirsk, Russia, Новосибирск. Минимальная стоимость в отеле 'Apartment on Dusi Kovalchuk' за ночь: от 3090₽",82.908841,55.058956
378,378,On-day,"ul. Lenina, 88, Novosibirsk, Novosibirskaya oblast', Russia, 630132, Новосибирск","On-day по адресу ul. Lenina, 88, Novosibirsk, Novosibirskaya oblast', Russia, 630132, Новосибирск. Минимальная стоимость в отеле 'On-day' за ночь: от 3202₽",82.92043,55.030204
379,379,Berdskaya zaimka,"2nd Lineynaya str, 1, Бердск","Berdskaya zaimka по адресу 2nd Lineynaya str, 1, Бердск. Минимальная стоимость в отеле 'Berdskaya zaimka' за ночь: от 8648₽",83.107135,54.758288
380,380,Диван и чемодан на Галущака 15,"ул. Галущака, 15, Новосибирск","Диван и чемодан на Галущака 15 по адресу ул. Галущака, 15, Новосибирск. Минимальная стоимость в отеле 'Диван и чемодан на Галущака 15' за ночь: от 2223₽",82.907359,55.053701
381,381,Квартирка-НСК в Горском 75,"мкр. Горский, 75, Новосибирск","Квартирка-НСК в Горском 75 по адресу мкр. Горский, 75, Новосибирск. Минимальная стоимость в отеле 'Квартирка-НСК в Горском 75' за ночь: от 3174₽",82.887345,54.994879
382,382,Санаторий-профилакторий Бараба,"пер. Индустриальный, д.2, Барабинск","Санаторий-профилакторий Бараба по адресу пер. Индустриальный, д.2, Барабинск. Минимальная стоимость в отеле 'Санаторий-профилакторий Бараба' за ночь: от 6783₽",78.338195,55.35182
383,383,Парус (Бердск),"633011, Новосибирская область, г. Бердск, ул. Красный Сокол, д. 29, Бердск","Парус (Бердск) по адресу 633011, Новосибирская область, г. Бердск, ул. Красный Сокол, д. 29, Бердск. Минимальная стоимость в отеле 'Парус (Бердск)' за ночь: от 14601₽",83.067062,54.774177
384,384,Аризона,"улица Щетинкина, дом 34, Новосибирск","Аризона по адресу улица Щетинкина, дом 34, Новосибирск. Минимальная стоимость в отеле 'Аризона' за ночь: от 3202₽",82.912102,55.026876
385,385,Золотой берег,"ул. Софийская 19, Новосибирск","Золотой берег по адресу ул. Софийская 19, Новосибирск. Минимальная стоимость в отеле 'Золотой берег' за ночь: от 6783₽",82.929664,54.834999
386,386,Salvador Tikhiy Tsentr Apartment,"Ulitsa Derzhavina 47, Novosibirsk, Novosibirsk, Novosibirsk, Novosibirsk, Новосибирск","Salvador Tikhiy Tsentr Apartment по адресу Ulitsa Derzhavina 47, Novosibirsk, Novosibirsk, Novosibirsk, Novosibirsk, Новосибирск. Минимальная стоимость в отеле 'Salvador Tikhiy Tsentr Apartment' за ночь: от 3090₽",82.930796,55.039718
387,387,Pillow-Lux apartments,"Narymskaya ul., 23, Novosibirsk, Novosibirskaya oblast', Russia, 630132, Новосибирск","Pillow-Lux apartments по адресу Narymskaya ul., 23, Novosibirsk, Novosibirskaya oblast', Russia, 630132, Новосибирск. Минимальная стоимость в отеле 'Pillow-Lux apartments' за ночь: от 3090₽",82.904952,55.043726
388,388,База Отдыха Дом Охотника,"село Сосновка, Боровое","База Отдыха Дом Охотника по адресу село Сосновка, Боровое. Минимальная стоимость в отеле 'База Отдыха Дом Охотника' за ночь: от 4507₽",65.093345,55.07002
389,389,Центральная (быв.Колос),"ул. Ленина, д. 20, Краснозерское","Центральная (быв.Колос) по адресу ул. Ленина, д. 20, Краснозерское. Минимальная стоимость в отеле 'Центральная (быв.Колос)' за ночь: от 4507₽",79.242691,53.977884
390,390,Жилые помещения Voskhod,"ul. Voskhod 3 Code 57k,ul. Voskhod, Новосибирск","Жилые помещения Voskhod по адресу ul. Voskhod 3 Code 57k,ul. Voskhod, Новосибирск. Минимальная стоимость в отеле 'Жилые помещения Voskhod' за ночь: от 3202₽",82.952481,55.02203
391,391,Гостиница Млечный путь,"Agafonova 1A, Новосибирск","Гостиница Млечный путь по адресу Agafonova 1A, Новосибирск. Минимальная стоимость в отеле 'Гостиница Млечный путь' за ночь: от 3806₽",82.885476,55.185127
392,392,Бутик-отель Nord Castle,"ул. Аэропорт, 88/8, Новосибирск","Бутик-отель Nord Castle по адресу ул. Аэропорт, 88/8, Новосибирск. Минимальная стоимость в отеле 'Бутик-отель Nord Castle' за ночь: от 6449₽",82.90179,55.080169
393,393,Хостел Новониколаевск,"улица Дуси Ковальчук, д. 16, Новосибирск","Хостел Новониколаевск по адресу улица Дуси Ковальчук, д. 16, Новосибирск. Минимальная стоимость в отеле 'Хостел Новониколаевск' за ночь: от 2260₽",82.884955,55.048152
394,394,Жилое помещение на Шамшурина,"улица Дмитрия Шамшурина, д. 1, Новосибирск","Жилое помещение на Шамшурина по адресу улица Дмитрия Шамшурина, д. 1, Новосибирск. Минимальная стоимость в отеле 'Жилое помещение на Шамшурина' за ночь: от 3389₽",82.903748,55.028682
395,395,Отель Романо Хаус,"Л. Толстого ул., д. 75, Новосибирск","Отель Романо Хаус по адресу Л. Толстого ул., д. 75, Новосибирск. Минимальная стоимость в отеле 'Отель Романо Хаус' за ночь: от 4063₽",82.946544,55.019403
396,396,База отдыха Резиденция Сагиттариус,"улица Берёзовая, д.14/7, Новосибирск","База отдыха Резиденция Сагиттариус по адресу улица Берёзовая, д.14/7, Новосибирск. Минимальная стоимость в отеле 'База отдыха Резиденция Сагиттариус' за ночь: от 3202₽",83.110819,54.937262
397,397,Truck House Отель,"Восточное шоссе, д.5, Новосибирск","Truck House Отель по адресу Восточное шоссе, д.5, Новосибирск. Минимальная стоимость в отеле 'Truck House Отель' за ночь: от 3202₽",83.008339,55.120676
398,398,В гости на улице Челюскинцев 14,"ул. Челюскинцев, 14, Новосибирск","В гости на улице Челюскинцев 14 по адресу ул. Челюскинцев, 14, Новосибирск. Минимальная стоимость в отеле 'В гости на улице Челюскинцев 14' за ночь: от 2829₽",82.901825,55.03735
399,399,В гости на улице Ленина 94,"ул. Ленина, 94, Новосибирск","В гости на улице Ленина 94 по адресу ул. Ленина, 94, Новосибирск. Минимальная стоимость в отеле 'В гости на улице Ленина 94' за ночь: от 3198₽",82.896472,55.039027
400,400,Жилые помещения Abazhur,"Ulitsa Mira 19, Новосибирск","Жилые помещения Abazhur по адресу Ulitsa Mira 19, Новосибирск. Минимальная стоимость в отеле 'Жилые помещения Abazhur' за ночь: от 2260₽",82.909398,54.964339
401,401,Квартирка-НСК в Горском 86,"мкр. Горский, 86, Новосибирск","Квартирка-НСК в Горском 86 по адресу мкр. Горский, 86, Новосибирск. Минимальная стоимость в отеле 'Квартирка-НСК в Горском 86' за ночь: от 3673₽",82.886716,54.993505
402,402,Metro Krasny Prospekt Apartment,"Ulitsa Gogolya 11А, 630091 Novosibirsk, Russia, Новосибирск","Metro Krasny Prospekt Apartment по адресу Ulitsa Gogolya 11А, 630091 Novosibirsk, Russia, Новосибирск. Минимальная стоимость в отеле 'Metro Krasny Prospekt Apartment' за ночь: от 3090₽",82.919388,55.043427
403,403,Гостиница Ассоль,"улица Народная, д.20/1, Новосибирск","Гостиница Ассоль по адресу улица Народная, д.20/1, Новосибирск. Минимальная стоимость в отеле 'Гостиница Ассоль' за ночь: от 3202₽",82.944486,55.066592
404,404,Диван и чемодан на улице Дуси Ковальчук 260,"ул. Дуси Ковальчук, 260, Новосибирск","Диван и чемодан на улице Дуси Ковальчук 260 по адресу ул. Дуси Ковальчук, 260, Новосибирск. Минимальная стоимость в отеле 'Диван и чемодан на улице Дуси Ковальчук 260' за ночь: от 2261₽",82.909713,55.057935
405,405,Gostim on Blyukhera,"Ulitsa Blyukhera, 26, Новосибирск","Gostim on Blyukhera по адресу Ulitsa Blyukhera, 26, Новосибирск. Минимальная стоимость в отеле 'Gostim on Blyukhera' за ночь: от 3202₽",82.898457,54.987498
406,406,Жилые помещения Друзья,"Вокзальная магистраль 5, Новосибирск","Жилые помещения Друзья по адресу Вокзальная магистраль 5, Новосибирск. Минимальная стоимость в отеле 'Жилые помещения Друзья' за ночь: от 2260₽",82.905545,55.034131
407,407,Сибирский Хостел,"Semyi Shamshinykh Street 16 Novosibirsk 630099,Semyi Shamshinykh Street, Новосибирск","Сибирский Хостел по адресу Semyi Shamshinykh Street 16 Novosibirsk 630099,Semyi Shamshinykh Street, Новосибирск. Минимальная стоимость в отеле 'Сибирский Хостел' за ночь: от 2260₽",82.935009,55.02797
408,408,Vista Hotel Club,"Anzherskaya 49 Novosibirsk 630040,Anzherskaya, Новосибирск","Vista Hotel Club по адресу Anzherskaya 49 Novosibirsk 630040,Anzherskaya, Новосибирск. Минимальная стоимость в отеле 'Vista Hotel Club' за ночь: от 3202₽",82.894486,55.114652
409,409,Диван и чемодан на Советской 50,"ул. Советская, 50, Новосибирск","Диван и чемодан на Советской 50 по адресу ул. Советская, 50, Новосибирск. Минимальная стоимость в отеле 'Диван и чемодан на Советской 50' за ночь: от 2438₽",82.913216,55.042813
410,410,Gorod N Hostel,"Ulitsa Chelyuskintsev 24, Novosibirsk, Russia, Новосибирск","Gorod N Hostel по адресу Ulitsa Chelyuskintsev 24, Novosibirsk, Russia, Новосибирск. Минимальная стоимость в отеле 'Gorod N Hostel' за ночь: от 2260₽",82.905571,55.037784
411,411,Heart Of Academytown,"Ulitsatereshkovoy 44, Новосибирск","Heart Of Academytown по адресу Ulitsatereshkovoy 44, Новосибирск. Минимальная стоимость в отеле 'Heart Of Academytown' за ночь: от 3202₽",82.92043,55.030204
412,412,Диван и чемодан на Красном 94,"пр-кт Красный, 94, Новосибирск","Диван и чемодан на Красном 94 по адресу пр-кт Красный, 94, Новосибирск. Минимальная стоимость в отеле 'Диван и чемодан на Красном 94' за ночь: от 2097₽",82.915291,55.052789
413,413,Мини-отель на Челюскинцев 17,"улица Челюскинцев, д.17, Новосибирск","Мини-отель на Челюскинцев 17 по адресу улица Челюскинцев, д.17, Новосибирск. Минимальная стоимость в отеле 'Мини-отель на Челюскинцев 17' за ночь: от 2452₽",82.907467,55.040698
414,414,Yousinn (Юсинн) на улице Державина,"ул. Державина, 92, Новосибирск","Yousinn (Юсинн) на улице Державина по адресу ул. Державина, 92, Новосибирск. Минимальная стоимость в отеле 'Yousinn (Юсинн) на улице Державина' за ночь: от 2969₽",82.94384,55.040353
415,415,Yousinn (Юсинн) на улице Одоевского 1/2,"ул. Одоевского, 1/2, Новосибирск","Yousinn (Юсинн) на улице Одоевского 1/2 по адресу ул. Одоевского, 1/2, Новосибирск. Минимальная стоимость в отеле 'Yousinn (Юсинн) на улице Одоевского 1/2' за ночь: от 1960₽",83.110837,54.938214
416,416,Релакс (Relax),"ул. Школьная, д.10, Озеро-Карачи","Релакс (Relax) по адресу ул. Школьная, д.10, Озеро-Карачи. Минимальная стоимость в отеле 'Релакс (Relax)' за ночь: от 3122₽",76.960988,55.348437
417,417,У самовара,"ул. Пасечная, д.10, Новосибирск","У самовара по адресу ул. Пасечная, д.10, Новосибирск. Минимальная стоимость в отеле 'У самовара' за ночь: от 3202₽",83.114672,54.862881
418,418,Восток,"ул.Промышленная, 1а/3, Бердск","Восток по адресу ул.Промышленная, 1а/3, Бердск. Минимальная стоимость в отеле 'Восток' за ночь: от 2643₽",83.131174,54.752734
419,419,Хостел На Сибирской,"улица Сибирская,д. 51, Новосибирск","Хостел На Сибирской по адресу улица Сибирская,д. 51, Новосибирск. Минимальная стоимость в отеле 'Хостел На Сибирской' за ночь: от 1221₽",82.910252,55.037288
420,420,Yousinn (Юсинн) на улице Жуковского,"ул. Жуковского, 117, Новосибирск","Yousinn (Юсинн) на улице Жуковского по адресу ул. Жуковского, 117, Новосибирск. Минимальная стоимость в отеле 'Yousinn (Юсинн) на улице Жуковского' за ночь: от 2834₽",82.891971,55.059121
421,421,В гости на улице Челюскинцев 15/1,"ул. Челюскинцев, 15/1-9, Новосибирск","В гости на улице Челюскинцев 15/1 по адресу ул. Челюскинцев, 15/1-9, Новосибирск. Минимальная стоимость в отеле 'В гости на улице Челюскинцев 15/1' за ночь: от 3250₽",82.904997,55.040848
422,422,Truck House Hotel,"Vostochnoye sh., 5, Novosibirsk, Novosibirskaya oblast', Russia, 630517, Новосибирск","Truck House Hotel по адресу Vostochnoye sh., 5, Novosibirsk, Novosibirskaya oblast', Russia, 630517, Новосибирск. Минимальная стоимость в отеле 'Truck House Hotel' за ночь: от 3202₽",83.008339,55.120676
423,423,Уют,"Индустриальный мкр., д.13а, Искитим","Уют по адресу Индустриальный мкр., д.13а, Искитим. Минимальная стоимость в отеле 'Уют' за ночь: от 3122₽",83.306795,54.628298
424,424,Welcome na Detskom proezde,"Detskiy Ave., 5, Новосибирск","Welcome na Detskom proezde по адресу Detskiy Ave., 5, Новосибирск. Минимальная стоимость в отеле 'Welcome na Detskom proezde' за ночь: от 3202₽",82.92043,55.030204
425,425,Room Apart (Рум Апарт) на улице Ядринцевская,"ул. Ядринцевская, 71, Новосибирск","Room Apart (Рум Апарт) на улице Ядринцевская по адресу ул. Ядринцевская, 71, Новосибирск. Минимальная стоимость в отеле 'Room Apart (Рум Апарт) на улице Ядринцевская' за ночь: от 3355₽",82.935045,55.034879
426,426,Меблированная комната Goluboe Ozero,"Морская улица, 50, Бердск","Меблированная комната Goluboe Ozero по адресу Морская улица, 50, Бердск. Минимальная стоимость в отеле 'Меблированная комната Goluboe Ozero' за ночь: от 4440₽",83.034498,54.785325
427,427,Гостиный Двор на улице Гоголя,"ул. Гоголя, 26, Новосибирск","Гостиный Двор на улице Гоголя по адресу ул. Гоголя, 26, Новосибирск. Минимальная стоимость в отеле 'Гостиный Двор на улице Гоголя' за ночь: от 2373₽",82.926745,55.042478
428,428,Жилое Помещение Просторная Двушка в Центре Левобережья у Монумента Славы,"2-й переулок Крашенинникова, д. 6, Новосибирск","Жилое Помещение Просторная Двушка в Центре Левобережья у Монумента Славы по адресу 2-й переулок Крашенинникова, д. 6, Новосибирск. Минимальная стоимость в отеле 'Жилое Помещение Просторная Двушка в Центре Левобережья у Монумента Славы' за ночь: от 3137₽",82.866028,54.983169
429,429,Viaggio Aparts (Виаджио Апартс) на улице Овражная,"ул. Овражная, 3, Новосибирск","Viaggio Aparts (Виаджио Апартс) на улице Овражная по адресу ул. Овражная, 3, Новосибирск. Минимальная стоимость в отеле 'Viaggio Aparts (Виаджио Апартс) на улице Овражная' за ночь: от 4214₽",82.918615,55.058946
430,430,Ya doma!,"630000, Russia, Novosibirsk, apartments are located at different addresses, Новосибирск","Ya doma! по адресу 630000, Russia, Novosibirsk, apartments are located at different addresses, Новосибирск. Минимальная стоимость в отеле 'Ya doma!' за ночь: от 3202₽",82.92043,55.030204
431,431,Аппартаменты на Коммунистической 26-3,"улица Коммунистическая, дом 26, Новосибирск","Аппартаменты на Коммунистической 26-3 по адресу улица Коммунистическая, дом 26, Новосибирск. Минимальная стоимость в отеле 'Аппартаменты на Коммунистической 26-3' за ночь: от 1870₽",82.916279,55.022386
432,432,Жилое помещение Армада Колос,"Новосибирская область, рабочий поселок Краснообск, улица Восточная, д. 112, Новосибирск","Жилое помещение Армада Колос по адресу Новосибирская область, рабочий поселок Краснообск, улица Восточная, д. 112, Новосибирск. Минимальная стоимость в отеле 'Жилое помещение Армада Колос' за ночь: от 2260₽",82.995717,54.925871
433,433,Elektron,"2-ой Краснодонский пер., д. 3, Новосибирск","Elektron по адресу 2-ой Краснодонский пер., д. 3, Новосибирск. Минимальная стоимость в отеле 'Elektron' за ночь: от 3202₽",82.951098,55.073623
434,434,Гостевой дом Хуторок,"улица Бердская, д.97, Мамоново","Гостевой дом Хуторок по адресу улица Бердская, д.97, Мамоново. Минимальная стоимость в отеле 'Гостевой дом Хуторок' за ночь: от 2238₽",84.301311,54.316161
435,435,Гостиница Виктория Хаус,"улица Далидовича, д. 35, Новосибирск","Гостиница Виктория Хаус по адресу улица Далидовича, д. 35, Новосибирск. Минимальная стоимость в отеле 'Гостиница Виктория Хаус' за ночь: от 3202₽",82.958491,55.021571
436,436,Жилые помещения Homeliness,"Poselok Tolmachevo, Ulitsa Pobedy 45, Ob, Novosibirskaya oblast', Russia, 633101, Новосибирск","Жилые помещения Homeliness по адресу Poselok Tolmachevo, Ulitsa Pobedy 45, Ob, Novosibirskaya oblast', Russia, 633101, Новосибирск. Минимальная стоимость в отеле 'Жилые помещения Homeliness' за ночь: от 3202₽",82.886931,55.070572
437,437,On-day,"Челюскинцев, д. 5, 630132 Novosibirsk, Russia, Новосибирск","On-day по адресу Челюскинцев, д. 5, 630132 Novosibirsk, Russia, Новосибирск. Минимальная стоимость в отеле 'On-day' за ночь: от 2260₽",82.898394,55.037242
438,438,Lazurnyi sanatorium,"633000 Russia, Novosibirsk region, Berdsk, Rechkunovskaya recreation area, 16, Бердск","Lazurnyi sanatorium по адресу 633000 Russia, Novosibirsk region, Berdsk, Rechkunovskaya recreation area, 16, Бердск. Минимальная стоимость в отеле 'Lazurnyi sanatorium' за ночь: от 4440₽",83.119721,54.78167
439,439,Подкова,"ул. Советская, 285, Искитим","Подкова по адресу ул. Советская, 285, Искитим. Минимальная стоимость в отеле 'Подкова' за ночь: от 4079₽",83.309679,54.631816
440,440,Веста на улице Титова,"ул. Титова, 2, Новосибирск","Веста на улице Титова по адресу ул. Титова, 2, Новосибирск. Минимальная стоимость в отеле 'Веста на улице Титова' за ночь: от 2208₽",82.886878,54.98306
441,441,В гости на улице Челюскинцев 44,"ул. Челюскинцев, 44, Новосибирск","В гости на улице Челюскинцев 44 по адресу ул. Челюскинцев, 44, Новосибирск. Минимальная стоимость в отеле 'В гости на улице Челюскинцев 44' за ночь: от 2823₽",82.908338,55.039574
442,442,Отель Academ Inn,"улица Иванова, д. 6, Новосибирск","Отель Academ Inn по адресу улица Иванова, д. 6, Новосибирск. Минимальная стоимость в отеле 'Отель Academ Inn' за ночь: от 2500₽",83.084453,54.866119
443,443,Отель «Гостиный Двор»,"Красный Проспект, д.234/1, Новосибирск","Отель «Гостиный Двор» по адресу Красный Проспект, д.234/1, Новосибирск. Минимальная стоимость в отеле 'Отель «Гостиный Двор»' за ночь: от 4275₽",82.908832,55.075138
444,444,Отель Садовая 19,"улица Садовая, д. 19, Новосибирск","Отель Садовая 19 по адресу улица Садовая, д. 19, Новосибирск. Минимальная стоимость в отеле 'Отель Садовая 19' за ночь: от 8025₽",82.934632,55.019893
445,445,Erunin Hotels Group на Толстого 75 (Ерунин хотелс групп),"ул. Толстого, 75, Новосибирск","Erunin Hotels Group на Толстого 75 (Ерунин хотелс групп) по адресу ул. Толстого, 75, Новосибирск. Минимальная стоимость в отеле 'Erunin Hotels Group на Толстого 75 (Ерунин хотелс групп)' за ночь: от 2937₽",82.946544,55.019403
446,446,Apartment Dmitriya Donskogo,"ul. Dmitriya Donskogo, 24/1, Новосибирск","Apartment Dmitriya Donskogo по адресу ul. Dmitriya Donskogo, 24/1, Новосибирск. Минимальная стоимость в отеле 'Apartment Dmitriya Donskogo' за ночь: от 3090₽",82.897334,55.06406
447,447,Квартирка-НСК на улице Блюхера 65,"ул. Блюхера, 65, Новосибирск","Квартирка-НСК на улице Блюхера 65 по адресу ул. Блюхера, 65, Новосибирск. Минимальная стоимость в отеле 'Квартирка-НСК на улице Блюхера 65' за ночь: от 5001₽",82.90073,54.990612
448,448,Диван и чемодан на Красном 100/1,"пр-кт Красный, 100/1, Новосибирск","Диван и чемодан на Красном 100/1 по адресу пр-кт Красный, 100/1, Новосибирск. Минимальная стоимость в отеле 'Диван и чемодан на Красном 100/1' за ночь: от 2065₽",82.916432,55.055336
449,449,Gostiniy Dvor,"633623, Russia, Novosibirsk region, Suzun, st. Lenin, 54, Сузун","Gostiniy Dvor по адресу 633623, Russia, Novosibirsk region, Suzun, st. Lenin, 54, Сузун. Минимальная стоимость в отеле 'Gostiniy Dvor' за ночь: от 4507₽",82.312728,53.789476
450,450,Хостел Juicy,"улица Державина, д.11, Новосибирск","Хостел Juicy по адресу улица Державина, д.11, Новосибирск. Минимальная стоимость в отеле 'Хостел Juicy' за ночь: от 2260₽",82.927877,55.039533
451,451,Отель Мегаполис,"Улица Дуси Ковальчук, д. 252, Новосибирск","Отель Мегаполис по адресу Улица Дуси Ковальчук, д. 252, Новосибирск. Минимальная стоимость в отеле 'Отель Мегаполис' за ночь: от 3202₽",82.906353,55.056496
452,452,Гостевой дом Мичуринский,"улица Барханная, д.2А, Новосибирск","Гостевой дом Мичуринский по адресу улица Барханная, д.2А, Новосибирск. Минимальная стоимость в отеле 'Гостевой дом Мичуринский' за ночь: от 7787₽",82.999652,54.885725
453,453,Zona Sna Na Studencheskoy,"Mikroraion Gorsky 41 630032 Novosibirsk,Mikroraion Gorsky, Новосибирск","Zona Sna Na Studencheskoy по адресу Mikroraion Gorsky 41 630032 Novosibirsk,Mikroraion Gorsky, Новосибирск. Минимальная стоимость в отеле 'Zona Sna Na Studencheskoy' за ночь: от 3202₽",82.92043,55.030204
454,454,Тестовый отель №1 для Ракеты (Под запрос),"Ulitsa Krasina, 6, Новосибирск","Тестовый отель №1 для Ракеты (Под запрос) по адресу Ulitsa Krasina, 6, Новосибирск. Минимальная стоимость в отеле 'Тестовый отель №1 для Ракеты (Под запрос)' за ночь: от 3806₽",82.961806,55.044278
455,455,Zheleznodorozhnaya Apartment,"Железнодорожная 10, кв.9, Новосибирск","Zheleznodorozhnaya Apartment по адресу Железнодорожная 10, кв.9, Новосибирск. Минимальная стоимость в отеле 'Zheleznodorozhnaya Apartment' за ночь: от 3090₽",82.901107,55.044562
456,456,Apartamentay Na Kraylova,"ul. Krylova, 64, Novosibirskaya oblast', Новосибирск","Apartamentay Na Kraylova по адресу ul. Krylova, 64, Novosibirskaya oblast', Новосибирск. Минимальная стоимость в отеле 'Apartamentay Na Kraylova' за ночь: от 3202₽",82.92043,55.030204
457,457,Жилые помещения Metro,"Красный Проспект 71, Новосибирск","Жилые помещения Metro по адресу Красный Проспект 71, Новосибирск. Минимальная стоимость в отеле 'Жилые помещения Metro' за ночь: от 2260₽",82.915821,55.045217
458,458,"Алатырь Новосибирск, ул. Карла Маркса, д. 9","Россия, 630064, Новосибирская область, Новосибирск, пр-т. Карла Маркса, д. 9, Новосибирск","Алатырь Новосибирск, ул. Карла Маркса, д. 9 по адресу Россия, 630064, Новосибирская область, Новосибирск, пр-т. Карла Маркса, д. 9, Новосибирск. Минимальная стоимость в отеле 'Алатырь Новосибирск, ул. Карла Маркса, д. 9' за ночь: от 3202₽",82.897837,54.984997
459,459,Жилые помещения Tulka,"ul. Tulskaia 490/1 Novosibirsk 630052,ul. Tulskaia, Новосибирск","Жилые помещения Tulka по адресу ul. Tulskaia 490/1 Novosibirsk 630052,ul. Tulskaia, Новосибирск. Минимальная стоимость в отеле 'Жилые помещения Tulka' за ночь: от 3202₽",82.92043,55.030204
460,460,Жилое помещение в квартале Панорама,"улица Немировича-Данченко, д. 148/1, Новосибирск","Жилое помещение в квартале Панорама по адресу улица Немировича-Данченко, д. 148/1, Новосибирск. Минимальная стоимость в отеле 'Жилое помещение в квартале Панорама' за ночь: от 2260₽",82.917672,54.990447
461,461,"A 54 hostel, apartments","pr. Karla Marksa, 11, Novosibirsk, Novosibirskaya oblast', Russia, 630073, Новосибирск","A 54 hostel, apartments по адресу pr. Karla Marksa, 11, Novosibirsk, Novosibirskaya oblast', Russia, 630073, Новосибирск. Минимальная стоимость в отеле 'A 54 hostel, apartments' за ночь: от 3090₽",82.898026,54.985555
462,462,Yousinn (Юсинн) на улице Первомайская 188,"ул. Первомайская, 188, Новосибирск","Yousinn (Юсинн) на улице Первомайская 188 по адресу ул. Первомайская, 188, Новосибирск. Минимальная стоимость в отеле 'Yousinn (Юсинн) на улице Первомайская 188' за ночь: от 2669₽",83.074338,54.973817
463,463,Хостел на Геодезической,"улица Геодезическая, д. 19, Новосибирск","Хостел на Геодезической по адресу улица Геодезическая, д. 19, Новосибирск. Минимальная стоимость в отеле 'Хостел на Геодезической' за ночь: от 2260₽",82.909299,54.987208
464,464,Podushka Lyuks na Chelyuskincev 30 1,"ul. Chelyuskintsev 30/1 Zheleznodorozhnyy Rayon,ul. Chelyuskintsev, Новосибирск","Podushka Lyuks na Chelyuskincev 30 1 по адресу ul. Chelyuskintsev 30/1 Zheleznodorozhnyy Rayon,ul. Chelyuskintsev, Новосибирск. Минимальная стоимость в отеле 'Podushka Lyuks na Chelyuskincev 30 1' за ночь: от 3202₽",82.906748,55.039378
465,465,Stupeny,"Ulitsa Inskaya 67 Unit 5,Ulitsa Inskaya, Новосибирск","Stupeny по адресу Ulitsa Inskaya 67 Unit 5,Ulitsa Inskaya, Новосибирск. Минимальная стоимость в отеле 'Stupeny' за ночь: от 3202₽",82.929179,55.013854
466,466,Заря,"ул. Ленина, д.108, Довольное","Заря по адресу ул. Ленина, д.108, Довольное. Минимальная стоимость в отеле 'Заря' за ночь: от 3122₽",79.662267,54.496081
467,467,Zona Sna on Marksa,"Ulitsa Kosmicheskaya 12/1 Novosibirsk 630073,Ulitsa Kosmicheskaya, Новосибирск","Zona Sna on Marksa по адресу Ulitsa Kosmicheskaya 12/1 Novosibirsk 630073,Ulitsa Kosmicheskaya, Новосибирск. Минимальная стоимость в отеле 'Zona Sna on Marksa' за ночь: от 3202₽",82.902957,54.983851
468,468,Апвртаменты на Гоголя 3а,"улица Гоголя, д.3а, Новосибирск","Апвртаменты на Гоголя 3а по адресу улица Гоголя, д.3а, Новосибирск. Минимальная стоимость в отеле 'Апвртаменты на Гоголя 3а' за ночь: от 3090₽",82.915103,55.042803
469,469,Диван и чемодан на Ватутина,"ул. Ватутина, 39, Новосибирск","Диван и чемодан на Ватутина по адресу ул. Ватутина, 39, Новосибирск. Минимальная стоимость в отеле 'Диван и чемодан на Ватутина' за ночь: от 1917₽",82.901089,54.981014
470,470,Клинический санаторий Парус,"улица Красный сокол, 29, Бердск","Клинический санаторий Парус по адресу улица Красный сокол, 29, Бердск. Минимальная стоимость в отеле 'Клинический санаторий Парус' за ночь: от 4440₽",83.067062,54.774177
471,471,Новососедово,"Фермерская ул., 1А, Новососедово","Новососедово по адресу Фермерская ул., 1А, Новососедово. Минимальная стоимость в отеле 'Новососедово' за ночь: от 4507₽",83.982086,54.640482
472,472,Диван и чемодан на Красном проспекте 94/1,"пр-кт Красный, 94/1, Новосибирск","Диван и чемодан на Красном проспекте 94/1 по адресу пр-кт Красный, 94/1, Новосибирск. Минимальная стоимость в отеле 'Диван и чемодан на Красном проспекте 94/1' за ночь: от 2825₽",82.916055,55.052716
473,473,Тестовый отель №3 для Ракеты (Под запрос),"Ulitsa Lenina, 52, Новосибирск","Тестовый отель №3 для Ракеты (Под запрос) по адресу Ulitsa Lenina, 52, Новосибирск. Минимальная стоимость в отеле 'Тестовый отель №3 для Ракеты (Под запрос)' за ночь: от 3202₽",82.90205,55.033548
474,474,В гости на улице Челюскинцев 14/1,"ул. Челюскинцев, 14/1, Новосибирск","В гости на улице Челюскинцев 14/1 по адресу ул. Челюскинцев, 14/1, Новосибирск. Минимальная стоимость в отеле 'В гости на улице Челюскинцев 14/1' за ночь: от 3198₽",82.902589,55.037892
475,475,В гости на улице Вокзальная магистраль 13,"ул. Вокзальная магистраль, 13, Новосибирск","В гости на улице Вокзальная магистраль 13 по адресу ул. Вокзальная магистраль, 13, Новосибирск. Минимальная стоимость в отеле 'В гости на улице Вокзальная магистраль 13' за ночь: от 2823₽",82.911617,55.032722
476,476,АлАнт на улице Серафимовича,"ул. Серафимовича, 20, Новосибирск","АлАнт на улице Серафимовича по адресу ул. Серафимовича, 20, Новосибирск. Минимальная стоимость в отеле 'АлАнт на улице Серафимовича' за ночь: от 4375₽",82.880616,54.977671
477,477,Номера Aura,"ул. Семьи Шамшиных, 12, Новосибирск","Номера Aura по адресу ул. Семьи Шамшиных, 12, Новосибирск. Минимальная стоимость в отеле 'Номера Aura' за ночь: от 3090₽",82.934327,55.027263
478,478,Байкал,"Россия, Новосибирская область, Коченево (поселок городского типа), Трасса Р-254 Иртыш, 1422-й километр, д.7, Прокудское","Байкал по адресу Россия, Новосибирская область, Коченево (поселок городского типа), Трасса Р-254 Иртыш, 1422-й километр, д.7, Прокудское. Минимальная стоимость в отеле 'Байкал' за ночь: от 3122₽",82.376958,55.040869
479,479,Dom Puteshestvennikov,"Ulitsa Syzranskaya 3 Novosibirsk 630025,Ulitsa Syzranskaya, Новосибирск","Dom Puteshestvennikov по адресу Ulitsa Syzranskaya 3 Novosibirsk 630025,Ulitsa Syzranskaya, Новосибирск. Минимальная стоимость в отеле 'Dom Puteshestvennikov' за ночь: от 3202₽",83.058815,54.964907
480,480,Гостевой дом Гора U Дачи,"Россия Маслянинский район Новосибирская область, Верх-Ики","Гостевой дом Гора U Дачи по адресу Россия Маслянинский район Новосибирская область, Верх-Ики. Минимальная стоимость в отеле 'Гостевой дом Гора U Дачи' за ночь: от 5880₽",84.129418,54.60258
481,481,Хостел Пух,"Российская улица, д. 21, Новосибирск","Хостел Пух по адресу Российская улица, д. 21, Новосибирск. Минимальная стоимость в отеле 'Хостел Пух' за ночь: от 2260₽",83.084938,54.869352
482,482,Nadezhda Hostel,"ul. Chelyuskintsev, 15/1, Novosibirsk, Novosibirskaya oblast', Russia, 630000, Новосибирск","Nadezhda Hostel по адресу ul. Chelyuskintsev, 15/1, Novosibirsk, Novosibirskaya oblast', Russia, 630000, Новосибирск. Минимальная стоимость в отеле 'Nadezhda Hostel' за ночь: от 2260₽",82.904997,55.040848
483,483,Мошково,"ул. Дорожная, д.1, Мошково","Мошково по адресу ул. Дорожная, д.1, Мошково. Минимальная стоимость в отеле 'Мошково' за ночь: от 3122₽",83.579982,55.293427
484,484,Отель Весна,"Dobrolyubova 12/4 Novosibirsk 630009,Dobrolyubova, Новосибирск","Отель Весна по адресу Dobrolyubova 12/4 Novosibirsk 630009,Dobrolyubova, Новосибирск. Минимальная стоимость в отеле 'Отель Весна' за ночь: от 3202₽",82.949697,55.007008
485,485,Жилое помещение Урицкого 13,"улица Урицкого, д.13, Новосибирск","Жилое помещение Урицкого 13 по адресу улица Урицкого, д.13, Новосибирск. Минимальная стоимость в отеле 'Жилое помещение Урицкого 13' за ночь: от 2954₽",82.913396,55.025684
486,486,Hotel X.O. (Икс О),"Любитель с/т, 370, Новосибирск","Hotel X.O. (Икс О) по адресу Любитель с/т, 370, Новосибирск. Минимальная стоимость в отеле 'Hotel X.O. (Икс О)' за ночь: от 2452₽",82.898906,55.100438
487,487,АлАнт на улице Покрышкина,"ул. Покрышкина, 1, Новосибирск","АлАнт на улице Покрышкина по адресу ул. Покрышкина, 1, Новосибирск. Минимальная стоимость в отеле 'АлАнт на улице Покрышкина' за ночь: от 4337₽",82.894109,54.979702
488,488,Диван и чемодан в Горском 63,"мкр. Горский, 63, Новосибирск","Диван и чемодан в Горском 63 по адресу мкр. Горский, 63, Новосибирск. Минимальная стоимость в отеле 'Диван и чемодан в Горском 63' за ночь: от 2954₽",82.893426,54.995746
489,489,Диван и чемодан на Блюхера,"ул. Блюхера, 54, Новосибирск","Диван и чемодан на Блюхера по адресу ул. Блюхера, 54, Новосибирск. Минимальная стоимость в отеле 'Диван и чемодан на Блюхера' за ночь: от 1943₽",82.910162,54.992797
490,490,Yousinn (Юсинн) на улице Овражная,"ул. Овражная, 3, Новосибирск","Yousinn (Юсинн) на улице Овражная по адресу ул. Овражная, 3, Новосибирск. Минимальная стоимость в отеле 'Yousinn (Юсинн) на улице Овражная' за ночь: от 3156₽",82.918615,55.058946
491,491,Matreshka Жилое помещение,"Prospekt Dzerdzhinskogo 14/2, Novosibirsk, Новосибирская обл., Russia, 630015, Новосибирск","Matreshka Жилое помещение по адресу Prospekt Dzerdzhinskogo 14/2, Novosibirsk, Новосибирская обл., Russia, 630015, Новосибирск. Минимальная стоимость в отеле 'Matreshka Жилое помещение' за ночь: от 3202₽",82.92043,55.030204
492,492,LiderHouse (ЛидерХаус) на улице Бориса Богаткова,"ул. Бориса Богаткова, 208/2, Новосибирск","LiderHouse (ЛидерХаус) на улице Бориса Богаткова по адресу ул. Бориса Богаткова, 208/2, Новосибирск. Минимальная стоимость в отеле 'LiderHouse (ЛидерХаус) на улице Бориса Богаткова' за ночь: от 3202₽",82.976934,55.035132
493,493,Room Apart (Рум Апарт) на улице Владимира Заровного,"ул. Владимира Заровного, 26/2, Новосибирск","Room Apart (Рум Апарт) на улице Владимира Заровного по адресу ул. Владимира Заровного, 26/2, Новосибирск. Минимальная стоимость в отеле 'Room Apart (Рум Апарт) на улице Владимира Заровного' за ночь: от 4014₽",82.970062,54.990044
494,494,Как дома. Левый берег на Новосибирской,"ул. Новосибирская, 27, Новосибирск","Как дома. Левый берег на Новосибирской по адресу ул. Новосибирская, 27, Новосибирск. Минимальная стоимость в отеле 'Как дома. Левый берег на Новосибирской' за ночь: от 2435₽",82.84419,54.987653
495,495,Жилое помещение Gostinniy Dom,"Bluhera Ulitsa 30 app 24, Novosibirsk, Novosibirskaya oblast', Russia, 630073, Новосибирск","Жилое помещение Gostinniy Dom по адресу Bluhera Ulitsa 30 app 24, Novosibirsk, Novosibirskaya oblast', Russia, 630073, Новосибирск. Минимальная стоимость в отеле 'Жилое помещение Gostinniy Dom' за ночь: от 2260₽",82.92043,55.030204
496,496,Хостел Дом,"Ядринцевская улица, д. 18, Новосибирск","Хостел Дом по адресу Ядринцевская улица, д. 18, Новосибирск. Минимальная стоимость в отеле 'Хостел Дом' за ночь: от 2260₽",82.924697,55.033032
497,497,Hostel Skazka in Tolmachevo,"Vodoprovodniy pereulok 4, 633100 Ob, Russia, Обь","Hostel Skazka in Tolmachevo по адресу Vodoprovodniy pereulok 4, 633100 Ob, Russia, Обь. Минимальная стоимость в отеле 'Hostel Skazka in Tolmachevo' за ночь: от 2476₽",82.692859,54.995307
498,498,Yousinn (Юсинн) на улице Немировича-Данченко 144/1,"ул. Немировича-Данченко, 144/1, Новосибирск","Yousinn (Юсинн) на улице Немировича-Данченко 144/1 по адресу ул. Немировича-Данченко, 144/1, Новосибирск. Минимальная стоимость в отеле 'Yousinn (Юсинн) на улице Немировича-Данченко 144/1' за ночь: от 4308₽",82.917043,54.989342
499,499,LiderHouse (ЛидерХаус) на магистрали Вокзальная,"мгстр. Вокзальная, 11, Новосибирск","LiderHouse (ЛидерХаус) на магистрали Вокзальная по адресу мгстр. Вокзальная, 11, Новосибирск. Минимальная стоимость в отеле 'LiderHouse (ЛидерХаус) на магистрали Вокзальная' за ночь: от 3202₽",86.311929,50.6447
500,500,Жилые помещения Metro,"Krasny Avenue 71 Novosibirsk 630099,Krasny Avenue, Новосибирск","Жилые помещения Metro по адресу Krasny Avenue 71 Novosibirsk 630099,Krasny Avenue, Новосибирск. Минимальная стоимость в отеле 'Жилые помещения Metro' за ночь: от 3202₽",82.915821,55.045217
501,501,Тестовый отель №2 для Ракеты (Под запрос),"Ulitsa Sovetskaya, 5, Новосибирск","Тестовый отель №2 для Ракеты (Под запрос) по адресу Ulitsa Sovetskaya, 5, Новосибирск. Минимальная стоимость в отеле 'Тестовый отель №2 для Ракеты (Под запрос)' за ночь: от 10485₽",82.91725,55.021571
502,502,АлАнт на улице Кошурникова 23/2,"ул. Кошурникова, 23/2, Новосибирск","АлАнт на улице Кошурникова 23/2 по адресу ул. Кошурникова, 23/2, Новосибирск. Минимальная стоимость в отеле 'АлАнт на улице Кошурникова 23/2' за ночь: от 4125₽",82.97184,55.040962
503,503,Хостел Big Ben,"Красный проспект, д. 99, Новосибирск","Хостел Big Ben по адресу Красный проспект, д. 99, Новосибирск. Минимальная стоимость в отеле 'Хостел Big Ben' за ночь: от 2260₽",82.911563,55.054862
504,504,Отель Поляна VERDE,"с. Морозово, ул. Космическая, 50, Морозово","Отель Поляна VERDE по адресу с. Морозово, ул. Космическая, 50, Морозово. Минимальная стоимость в отеле 'Отель Поляна VERDE' за ночь: от 4507₽",83.21134,54.775132
505,505,Капитан,"пр-т Мозжерина, д. 101, Обь","Капитан по адресу пр-т Мозжерина, д. 101, Обь. Минимальная стоимость в отеле 'Капитан' за ночь: от 4507₽",82.673267,55.007994
506,506,Лазурный (Бердск),"633000, Новосибирская область, г. Бердск, Речкуновская зона отдыха, 16, Бердск","Лазурный (Бердск) по адресу 633000, Новосибирская область, г. Бердск, Речкуновская зона отдыха, 16, Бердск. Минимальная стоимость в отеле 'Лазурный (Бердск)' за ночь: от 4507₽",83.119721,54.78167
507,507,Охотник,"ул. Островского 69/1, Бердск","Охотник по адресу ул. Островского 69/1, Бердск. Минимальная стоимость в отеле 'Охотник' за ночь: от 2626₽",83.103551,54.757088
508,508,Mini Hotel Paradise,"1-ya Chulymskaya ulitsa 156 Novosibirsk 630029,1-ya Chulymskaya ulitsa, Новосибирск","Mini Hotel Paradise по адресу 1-ya Chulymskaya ulitsa 156 Novosibirsk 630029,1-ya Chulymskaya ulitsa, Новосибирск. Минимальная стоимость в отеле 'Mini Hotel Paradise' за ночь: от 2452₽",82.908931,55.009192
509,509,Old Center Жилое помещение,"Krasny Prospekt 14 630007 Novosibirsk,Krasny Prospekt, Новосибирск","Old Center Жилое помещение по адресу Krasny Prospekt 14 630007 Novosibirsk,Krasny Prospekt, Новосибирск. Минимальная стоимость в отеле 'Old Center Жилое помещение' за ночь: от 3202₽",82.923807,55.019501
510,510,Hostel Provence,"ul. Chaplygina 45 Novosibirsk 630099,ul. Chaplygina, Новосибирск","Hostel Provence по адресу ul. Chaplygina 45 Novosibirsk 630099,ul. Chaplygina, Новосибирск. Минимальная стоимость в отеле 'Hostel Provence' за ночь: от 2260₽",82.916136,55.025803
511,511,Радуга,"ул. Коперативная, д.19, Чулым","Радуга по адресу ул. Коперативная, д.19, Чулым. Минимальная стоимость в отеле 'Радуга' за ночь: от 3122₽",80.975227,55.09117
512,512,Золотой Лев,"ул. Лесная поляна, д. 56, Лесная Поляна","Золотой Лев по адресу ул. Лесная поляна, д. 56, Лесная Поляна. Минимальная стоимость в отеле 'Золотой Лев' за ночь: от 4507₽",37.577193,55.023057
513,513,АлАнт на улице Стартовая,"ул. Стартовая, 1, Новосибирск","АлАнт на улице Стартовая по адресу ул. Стартовая, 1, Новосибирск. Минимальная стоимость в отеле 'АлАнт на улице Стартовая' за ночь: от 3750₽",82.90753,54.998638
514,514,Central,"ул. Сызранская, 3, Новосибирск","Central по адресу ул. Сызранская, 3, Новосибирск. Минимальная стоимость в отеле 'Central' за ночь: от 2260₽",83.058815,54.964907
515,515,Жилые помещения Guest House,"Улица Гоголя 32/1, Новосибирск","Жилые помещения Guest House по адресу Улица Гоголя 32/1, Новосибирск. Минимальная стоимость в отеле 'Жилые помещения Guest House' за ночь: от 2260₽",82.92891,55.042597
516,516,Гостевой дом на Артиллерийской,"ул.Артиллерийская, 97, Новосибирск","Гостевой дом на Артиллерийской по адресу ул.Артиллерийская, 97, Новосибирск. Минимальная стоимость в отеле 'Гостевой дом на Артиллерийской' за ночь: от 7787₽",82.964115,55.023774
517,517,Health,"Novoselov str., 25, Новосибирск","Health по адресу Novoselov str., 25, Новосибирск. Минимальная стоимость в отеле 'Health' за ночь: от 3202₽",82.92043,55.030204
518,518,Жилое Помещение Новые Матрешки,"улица Бородина, д. 56, Новосибирск","Жилое Помещение Новые Матрешки по адресу улица Бородина, д. 56, Новосибирск. Минимальная стоимость в отеле 'Жилое Помещение Новые Матрешки' за ночь: от 1830₽",82.876861,54.934278
519,519,Park hotel Khvoya (ex. Bylina),"Russia, 633000, Novosibirsk region, Berdsk, Rechkunovskaya recreation area 6, Бердск","Park hotel Khvoya (ex. Bylina) по адресу Russia, 633000, Novosibirsk region, Berdsk, Rechkunovskaya recreation area 6, Бердск. Минимальная стоимость в отеле 'Park hotel Khvoya (ex. Bylina)' за ночь: от 7386₽",83.109785,54.792587
520,520,Отель Smart Hotel KDO Барабинск,"улица Путевая, д.18, Барабинск","Отель Smart Hotel KDO Барабинск по адресу улица Путевая, д.18, Барабинск. Минимальная стоимость в отеле 'Отель Smart Hotel KDO Барабинск' за ночь: от 2278₽",78.35114,55.355751
521,521,Жилое Помещение Светлица 54,"улица Семьи Шамшиных, д. 90/5, Новосибирск","Жилое Помещение Светлица 54 по адресу улица Семьи Шамшиных, д. 90/5, Новосибирск. Минимальная стоимость в отеле 'Жилое Помещение Светлица 54' за ночь: от 3125₽",82.930131,55.046935
522,522,Хостел А54,"Новогодняя улица, д.28/1, Новосибирск","Хостел А54 по адресу Новогодняя улица, д.28/1, Новосибирск. Минимальная стоимость в отеле 'Хостел А54' за ночь: от 2260₽",82.909443,54.984006
523,523,АлАнт на улице Немировича-Данченко 156,"ул. Немировича-Данченко, 156, Новосибирск","АлАнт на улице Немировича-Данченко 156 по адресу ул. Немировича-Данченко, 156, Новосибирск. Минимальная стоимость в отеле 'АлАнт на улице Немировича-Данченко 156' за ночь: от 4250₽",82.914348,54.991315
524,524,Хостел Amazon,"улица Титова, 10/1, Новосибирск","Хостел Amazon по адресу улица Титова, 10/1, Новосибирск. Минимальная стоимость в отеле 'Хостел Amazon' за ночь: от 2260₽",82.885692,54.983448
525,525,Ирана Апартс,"разные районы города, Новосибирск","Ирана Апартс по адресу разные районы города, Новосибирск. Минимальная стоимость в отеле 'Ирана Апартс' за ночь: от 3090₽",49.103099,55.600898
526,526,Луневка,"ул. Байдуги, 48, Ордынское","Луневка по адресу ул. Байдуги, 48, Ордынское. Минимальная стоимость в отеле 'Луневка' за ночь: от 6783₽",81.897617,54.373552
527,527,Erunin Hotels Group на Далидовича 25 (Ерунин хотелс групп),"ул. Далидовича, д.25, Новосибирск","Erunin Hotels Group на Далидовича 25 (Ерунин хотелс групп) по адресу ул. Далидовича, д.25, Новосибирск. Минимальная стоимость в отеле 'Erunin Hotels Group на Далидовича 25 (Ерунин хотелс групп)' за ночь: от 2800₽",82.956829,55.022159
528,528,Север,"Хмельницкого улица, 32, Новосибирск","Север по адресу Хмельницкого улица, 32, Новосибирск. Минимальная стоимость в отеле 'Север' за ночь: от 3806₽",82.94949,55.072901
529,529,Отель MAXROOMS Здвинск Сибирия,"улица Карла Маркса, д.11, Здвинск","Отель MAXROOMS Здвинск Сибирия по адресу улица Карла Маркса, д.11, Здвинск. Минимальная стоимость в отеле 'Отель MAXROOMS Здвинск Сибирия' за ночь: от 2141₽",78.659594,54.700476
530,530,Теремки,"Новосибирская обл., Ордынский р-он, село Красный Яр, ул.Радужная, 10, Красный Яр","Теремки по адресу Новосибирская обл., Ордынский р-он, село Красный Яр, ул.Радужная, 10, Красный Яр. Минимальная стоимость в отеле 'Теремки' за ночь: от 4507₽",82.120058,54.423183
531,531,Университетская,"ул. Блюхера, д. 32/1, Новосибирск","Университетская по адресу ул. Блюхера, д. 32/1, Новосибирск. Минимальная стоимость в отеле 'Университетская' за ночь: от 4507₽",82.901646,54.990013
532,532,Uyutnyi hostel,"630082, Russia, Novosibirsk st. 2nd Soyuza Molodezhy 31, Новосибирск","Uyutnyi hostel по адресу 630082, Russia, Novosibirsk st. 2nd Soyuza Molodezhy 31, Новосибирск. Минимальная стоимость в отеле 'Uyutnyi hostel' за ночь: от 2260₽",82.92043,55.030204
533,533,Веста на улице Космическая,"ул. Космическая, 14, Новосибирск","Веста на улице Космическая по адресу ул. Космическая, 14, Новосибирск. Минимальная стоимость в отеле 'Веста на улице Космическая' за ночь: от 2252₽",82.905185,54.984476
534,534,Восток (Новосибирск),"630534, Новосибирская область, Новосибирский район, с. Мочище, ул. Снежная, 13, Новосибирск","Восток (Новосибирск) по адресу 630534, Новосибирская область, Новосибирский район, с. Мочище, ул. Снежная, 13, Новосибирск. Минимальная стоимость в отеле 'Восток (Новосибирск)' за ночь: от 5800₽",82.882709,55.169869
535,535,АлАнт на улице Немировича-Данченко 146/1,"ул. Немировича-Данченко, 146/1, Новосибирск","АлАнт на улице Немировича-Данченко 146/1 по адресу ул. Немировича-Данченко, 146/1, Новосибирск. Минимальная стоимость в отеле 'АлАнт на улице Немировича-Данченко 146/1' за ночь: от 4337₽",82.915408,54.990023
536,536,Apartment Uyut Dom,"Dusi Kovalchuk,250, Новосибирск","Apartment Uyut Dom по адресу Dusi Kovalchuk,250, Новосибирск. Минимальная стоимость в отеле 'Apartment Uyut Dom' за ночь: от 3090₽",82.904206,55.055759
537,537,База отдыха Престиж,"Приморская улица, 1Б, Боровое","База отдыха Престиж по адресу Приморская улица, 1Б, Боровое. Минимальная стоимость в отеле 'База отдыха Престиж' за ночь: от 6783₽",82.648833,54.693983
538,538,Жилое помещение B-START,"ul. Frunze, 55, Novosibirsk, Novosibirskaya oblast', Russia, 630070, Новосибирск","Жилое помещение B-START по адресу ul. Frunze, 55, Novosibirsk, Novosibirskaya oblast', Russia, 630070, Новосибирск. Минимальная стоимость в отеле 'Жилое помещение B-START' за ночь: от 3202₽",82.92043,55.030204
539,539,Gostiniy Dvor Lineyna 122,"Lineinaya 122, Новосибирск","Gostiniy Dvor Lineyna 122 по адресу Lineinaya 122, Новосибирск. Минимальная стоимость в отеле 'Gostiniy Dvor Lineyna 122' за ночь: от 3202₽",82.917789,55.050875
540,540,Hello-Hostel,"Коммунистическая,, Новосибирск","Hello-Hostel по адресу Коммунистическая,, Новосибирск. Минимальная стоимость в отеле 'Hello-Hostel' за ночь: от 2260₽",82.922415,55.023527
541,541,Hotel Mercury,"Kommunstroevskaya 178 Novosibirsk 630039,Kommunstroevskaya, Новосибирск","Hotel Mercury по адресу Kommunstroevskaya 178 Novosibirsk 630039,Kommunstroevskaya, Новосибирск. Минимальная стоимость в отеле 'Hotel Mercury' за ночь: от 3202₽",82.92043,55.030204
542,542,Хостел ROYAL HOSTEL 905,"улица 1905 года, 23, Новосибирск","Хостел ROYAL HOSTEL 905 по адресу улица 1905 года, 23, Новосибирск. Минимальная стоимость в отеле 'Хостел ROYAL HOSTEL 905' за ночь: от 2260₽",82.898439,55.04124
543,543,Аппартаменты на Коммунистической 26-1,"улица Коммунистическая, дом 26, Новосибирск","Аппартаменты на Коммунистической 26-1 по адресу улица Коммунистическая, дом 26, Новосибирск. Минимальная стоимость в отеле 'Аппартаменты на Коммунистической 26-1' за ночь: от 2052₽",82.916279,55.022386
544,544,Rocket,"Ulitsa Romanova 28, Новосибирск","Rocket по адресу Ulitsa Romanova 28, Новосибирск. Минимальная стоимость в отеле 'Rocket' за ночь: от 2260₽",82.917169,55.034281
545,545,Персона,"ул. Комарова 10, Карасук","Персона по адресу ул. Комарова 10, Карасук. Минимальная стоимость в отеле 'Персона' за ночь: от 1282₽",78.049782,53.749232
546,546,Гостиница Shale Nizhegorodskaya,"Нижегородская 18, Новосибирск","Гостиница Shale Nizhegorodskaya по адресу Нижегородская 18, Новосибирск. Минимальная стоимость в отеле 'Гостиница Shale Nizhegorodskaya' за ночь: от 3202₽",82.938737,55.016007
547,547,Уют,"ул. Молодежная, д.10а, Куйбышев","Уют по адресу ул. Молодежная, д.10а, Куйбышев. Минимальная стоимость в отеле 'Уют' за ночь: от 3122₽",78.301724,55.442194
548,548,Хостел А154,"переезд Бетонный, д. 1, Новосибирск","Хостел А154 по адресу переезд Бетонный, д. 1, Новосибирск. Минимальная стоимость в отеле 'Хостел А154' за ночь: от 1138₽",82.831146,54.995607
549,549,ON-DAY (Он-Дэй),"различные районы города, Новосибирск","ON-DAY (Он-Дэй) по адресу различные районы города, Новосибирск. Минимальная стоимость в отеле 'ON-DAY (Он-Дэй)' за ночь: от 3090₽",49.103099,55.600898
550,550,AquaApart (АкваАпарт) на улице Ясный Берег 1/1,"ул. Ясный берег, 1/1, Новосибирск","AquaApart (АкваАпарт) на улице Ясный Берег 1/1 по адресу ул. Ясный берег, 1/1, Новосибирск. Минимальная стоимость в отеле 'AquaApart (АкваАпарт) на улице Ясный Берег 1/1' за ночь: от 4281₽",82.891495,55.018732
551,551,Диван и чемодан в Горском 11,"мкр. Горский, 11, Новосибирск","Диван и чемодан в Горском 11 по адресу мкр. Горский, 11, Новосибирск. Минимальная стоимость в отеле 'Диван и чемодан в Горском 11' за ночь: от 2828₽",82.906389,54.995627
552,552,Дорожная,"ул. Октябрьская, д.2д, Краснозерское","Дорожная по адресу ул. Октябрьская, д.2д, Краснозерское. Минимальная стоимость в отеле 'Дорожная' за ночь: от 3122₽",79.236816,53.992915
553,553,Новый,"ул. Новосибирская 2, Бердск","Новый по адресу ул. Новосибирская 2, Бердск. Минимальная стоимость в отеле 'Новый' за ночь: от 4440₽",83.088352,54.804939
554,554,Tayozhnaya Zaimka Guest House,"Ulitsa Taygovskaya 1, Новососедово","Tayozhnaya Zaimka Guest House по адресу Ulitsa Taygovskaya 1, Новососедово. Минимальная стоимость в отеле 'Tayozhnaya Zaimka Guest House' за ночь: от 4220₽",83.974791,54.64228
555,555,Жемчужина Сибири,"ул. Почтовая , д.2/В, Усть-Тарка","Жемчужина Сибири по адресу ул. Почтовая , д.2/В, Усть-Тарка. Минимальная стоимость в отеле 'Жемчужина Сибири' за ночь: от 3122₽",75.700158,55.564078
556,556,Абсолют (квартирное бюро),"ул. Ленина,88, Новосибирск","Абсолют (квартирное бюро) по адресу ул. Ленина,88, Новосибирск. Минимальная стоимость в отеле 'Абсолют (квартирное бюро)' за ночь: от 3090₽",82.897954,55.037423
557,557,АлАнт на улице Немировича-Данченко 144/1,"ул. Немировича-Данченко, 144/1, Новосибирск","АлАнт на улице Немировича-Данченко 144/1 по адресу ул. Немировича-Данченко, 144/1, Новосибирск. Минимальная стоимость в отеле 'АлАнт на улице Немировича-Данченко 144/1' за ночь: от 4500₽",82.917043,54.989342
558,558,Квартирка-НСК на проспекте Карла Маркса 11,"пр-кт Карла Маркса, 11, Новосибирск","Квартирка-НСК на проспекте Карла Маркса 11 по адресу пр-кт Карла Маркса, 11, Новосибирск. Минимальная стоимость в отеле 'Квартирка-НСК на проспекте Карла Маркса 11' за ночь: от 4879₽",82.898026,54.985555
559,559,Жилые помещения Na Khilokskoy,"Ulitsa Khilokskaya, 1/1, Ap.7, Новосибирск","Жилые помещения Na Khilokskoy по адресу Ulitsa Khilokskaya, 1/1, Ap.7, Новосибирск. Минимальная стоимость в отеле 'Жилые помещения Na Khilokskoy' за ночь: от 3202₽",82.835781,54.951539
560,560,Hotel Gost,"54 Lenin street, Сузун","Hotel Gost по адресу 54 Lenin street, Сузун. Минимальная стоимость в отеле 'Hotel Gost' за ночь: от 4507₽",28.195943,-25.996716
561,561,Смарт Отель КДО Барабинск,"Россия, Новосибирская область, Барабинск, ул. Путевая, д. 18, Барабинск","Смарт Отель КДО Барабинск по адресу Россия, Новосибирская область, Барабинск, ул. Путевая, д. 18, Барабинск. Минимальная стоимость в отеле 'Смарт Отель КДО Барабинск' за ночь: от 4116₽",78.35114,55.355751
562,562,Веста на проспекте Карла Маркса,"пр-кт Карла Маркса, 7, Новосибирск","Веста на проспекте Карла Маркса по адресу пр-кт Карла Маркса, 7, Новосибирск. Минимальная стоимость в отеле 'Веста на проспекте Карла Маркса' за ночь: от 2099₽",82.897082,54.98507
563,563,Welcome (Вэлком) на улице Жемчужная 32,"Академгородок, ул. Жемчужная, 32, Новосибирск","Welcome (Вэлком) на улице Жемчужная 32 по адресу Академгородок, ул. Жемчужная, 32, Новосибирск. Минимальная стоимость в отеле 'Welcome (Вэлком) на улице Жемчужная 32' за ночь: от 4675₽",83.088783,54.838696
564,564,Apartamenty na ulitse Fabrichnaya,"65 Fabrichnaya Street, Новосибирск","Apartamenty na ulitse Fabrichnaya по адресу 65 Fabrichnaya Street, Новосибирск. Минимальная стоимость в отеле 'Apartamenty na ulitse Fabrichnaya' за ночь: от 3095₽",82.92043,55.030204
565,565,Dachny Hostel,"Ulitsa Dachnaya 19/1 Novosibirsk 630082,Ulitsa Dachnaya, Новосибирск","Dachny Hostel по адресу Ulitsa Dachnaya 19/1 Novosibirsk 630082,Ulitsa Dachnaya, Новосибирск. Минимальная стоимость в отеле 'Dachny Hostel' за ночь: от 2260₽",83.046248,54.89618
566,566,Gostinic,"Zheleznodorozhnaya Street 15/1 Novosibirsk 630132 Novosibirsk Oblast, Новосибирск","Gostinic по адресу Zheleznodorozhnaya Street 15/1 Novosibirsk 630132 Novosibirsk Oblast, Новосибирск. Минимальная стоимость в отеле 'Gostinic' за ночь: от 3806₽",82.904925,55.047028
567,567,«Лайк Хостел Новосибирск»,"ул. Овражная, 5, Новосибирск","«Лайк Хостел Новосибирск» по адресу ул. Овражная, 5, Новосибирск. Минимальная стоимость в отеле '«Лайк Хостел Новосибирск»' за ночь: от 2260₽",82.921193,55.05958
568,568,В гости на улице Вокзальная магистраль 11,"ул. Вокзальная магистраль, 11, Новосибирск","В гости на улице Вокзальная магистраль 11 по адресу ул. Вокзальная магистраль, 11, Новосибирск. Минимальная стоимость в отеле 'В гости на улице Вокзальная магистраль 11' за ночь: от 2875₽",82.909955,55.034363
569,569,Диван и чемодан на улице Ольги Жилиной 92А,"ул. Ольги Жилиной, 92А, Новосибирск","Диван и чемодан на улице Ольги Жилиной 92А по адресу ул. Ольги Жилиной, 92А, Новосибирск. Минимальная стоимость в отеле 'Диван и чемодан на улице Ольги Жилиной 92А' за ночь: от 2438₽",82.93368,55.047095
570,570,Мини-Отель Зеленый Бор,"микрорайон Зеленый Бор, д.9, Новосибирск","Мини-Отель Зеленый Бор по адресу микрорайон Зеленый Бор, д.9, Новосибирск. Минимальная стоимость в отеле 'Мини-Отель Зеленый Бор' за ночь: от 2452₽",83.007503,55.002093
571,571,Элитная 3х квартира на ул. Советской с джакузи. Центральный район,"улицa Советская, д. 36/1, Новосибирск","Элитная 3х квартира на ул. Советской с джакузи. Центральный район по адресу улицa Советская, д. 36/1, Новосибирск. Минимальная стоимость в отеле 'Элитная 3х квартира на ул. Советской с джакузи. Центральный район' за ночь: от 11000₽",82.91477,55.037216
572,572,Гостиница Abnicum,"ул. Сибиряков-Гвардейцев, 56/3, Новосибирск","Гостиница Abnicum по адресу ул. Сибиряков-Гвардейцев, 56/3, Новосибирск. Минимальная стоимость в отеле 'Гостиница Abnicum' за ночь: от 5348₽",82.897163,54.948773
573,573,Отель Антураж,"улица Новороссийская , д. 2, Новосибирск","Отель Антураж по адресу улица Новороссийская , д. 2, Новосибирск. Минимальная стоимость в отеле 'Отель Антураж' за ночь: от 2018₽",83.000173,55.051154
574,574,Бутик-отель Серебряная лошадь,"Владимировская улица, д. 4, Новосибирск","Бутик-отель Серебряная лошадь по адресу Владимировская улица, д. 4, Новосибирск. Минимальная стоимость в отеле 'Бутик-отель Серебряная лошадь' за ночь: от 3615₽",82.892528,55.032542
575,575,Хостел CapsLock,"улица Блюхера, д.77, Новосибирск","Хостел CapsLock по адресу улица Блюхера, д.77, Новосибирск. Минимальная стоимость в отеле 'Хостел CapsLock' за ночь: от 2260₽",82.904781,54.993654
576,576,Eridan,"улица Немировича-Данченко, д.138, корп.1, Новосибирск","Eridan по адресу улица Немировича-Данченко, д.138, корп.1, Новосибирск. Минимальная стоимость в отеле 'Eridan' за ночь: от 2883₽",82.917133,54.987689
577,577,Мини-отель ФлаНск на Крылова,"улица Крылова, д.34, Новосибирск","Мини-отель ФлаНск на Крылова по адресу улица Крылова, д.34, Новосибирск. Минимальная стоимость в отеле 'Мини-отель ФлаНск на Крылова' за ночь: от 2586₽",82.928856,55.040951
578,578,Апарт-отель Гостиниц.net,"Железнодорожный район, Железнодорожная улица, 15/1, Новосибирск","Апарт-отель Гостиниц.net по адресу Железнодорожный район, Железнодорожная улица, 15/1, Новосибирск. Минимальная стоимость в отеле 'Апарт-отель Гостиниц.net' за ночь: от 3169₽",82.904925,55.047028
579,579,Хостел Вавилон,"площадь Карла Маркса, д. 2, Новосибирск","Хостел Вавилон по адресу площадь Карла Маркса, д. 2, Новосибирск. Минимальная стоимость в отеле 'Хостел Вавилон' за ночь: от 2575₽",82.8926,54.98368
580,580,Гостиничный комплекс Аквилон,"улица Бродского, д. 11, Новосибирск","Гостиничный комплекс Аквилон по адресу улица Бродского, д. 11, Новосибирск. Минимальная стоимость в отеле 'Гостиничный комплекс Аквилон' за ночь: от 2307₽",82.982476,55.056811
581,581,Мини-Отель Клуб Путешественников,"Красный проспект, д.49, Новосибирск","Мини-Отель Клуб Путешественников по адресу Красный проспект, д.49, Новосибирск. Минимальная стоимость в отеле 'Мини-Отель Клуб Путешественников' за ночь: от 2773₽",82.918049,55.036994
582,582,Гостевой дом «Лесная сказка»,"Елочка-2, Ольховая ул., 65, Новосибирск","Гостевой дом «Лесная сказка» по адресу Елочка-2, Ольховая ул., 65, Новосибирск. Минимальная стоимость в отеле 'Гостевой дом «Лесная сказка»' за ночь: от 1588₽",82.75019,55.004169
583,583,Лесная сказка,"ул. Попова, 12, Бердск","Лесная сказка по адресу ул. Попова, 12, Бердск. Минимальная стоимость в отеле 'Лесная сказка' за ночь: от 4533₽",83.076018,54.772561
584,584,Гостиница Северная,"пр-кт Дзержинского, 32, Новосибирск","Гостиница Северная по адресу пр-кт Дзержинского, 32, Новосибирск. Минимальная стоимость в отеле 'Гостиница Северная' за ночь: от 3367₽",82.977634,55.056708
585,585,Отель Добролюбов,"​улица Инская, дом 143, Новосибирск","Отель Добролюбов по адресу ​улица Инская, дом 143, Новосибирск. Минимальная стоимость в отеле 'Отель Добролюбов' за ночь: от 2933₽",82.946687,55.005955
586,586,Отель Атерра,"улица Писарева, д.1 А, Новосибирск","Отель Атерра по адресу улица Писарева, д.1 А, Новосибирск. Минимальная стоимость в отеле 'Отель Атерра' за ночь: от 4200₽",82.912776,55.048936
587,587,Отель Аванта,"ул. Гоголя, д. 189/1, Новосибирск","Отель Аванта по адресу ул. Гоголя, д. 189/1, Новосибирск. Минимальная стоимость в отеле 'Отель Аванта' за ночь: от 5628₽",82.961671,55.046378
588,588,AZIMUT Отель Новосибирск,"ул. Ленина, д. 21, Новосибирск","AZIMUT Отель Новосибирск по адресу ул. Ленина, д. 21, Новосибирск. Минимальная стоимость в отеле 'AZIMUT Отель Новосибирск' за ночь: от 4301₽",82.904898,55.029312
589,589,Апарт-отель BonApart,"улица Ядринцевская, д.71, Новосибирск","Апарт-отель BonApart по адресу улица Ядринцевская, д.71, Новосибирск. Минимальная стоимость в отеле 'Апарт-отель BonApart' за ночь: от 2774₽",82.935045,55.034879
590,590,Гостиница Центральная,"Улица Ленина, дом 3, Новосибирск","Гостиница Центральная по адресу Улица Ленина, дом 3, Новосибирск. Минимальная стоимость в отеле 'Гостиница Центральная' за ночь: от 2530₽",82.917241,55.029585
591,591,Отель Cosmos Novosibirsk Hotel,"улица Дмитрия Шамшурина, дом 37, Новосибирск","Отель Cosmos Novosibirsk Hotel по адресу улица Дмитрия Шамшурина, дом 37, Новосибирск. Минимальная стоимость в отеле 'Отель Cosmos Novosibirsk Hotel' за ночь: от 5348₽",82.899229,55.032568
592,592,Отель DoubleTree by Hilton Novosibirsk,"ул. Каменская 7/1, Новосибирск","Отель DoubleTree by Hilton Novosibirsk по адресу ул. Каменская 7/1, Новосибирск. Минимальная стоимость в отеле 'Отель DoubleTree by Hilton Novosibirsk' за ночь: от 7650₽",82.928613,55.026298
593,593,Gorskiy city hotel,"улица Немировича-Данченко, д. 144а, Новосибирск","Gorskiy city hotel по адресу улица Немировича-Данченко, д. 144а, Новосибирск. Минимальная стоимость в отеле 'Gorskiy city hotel' за ночь: от 5348₽",82.914653,54.988892
594,594,Гостиница Н,"улица Фабричная, д.20, Новосибирск","Гостиница Н по адресу улица Фабричная, д.20, Новосибирск. Минимальная стоимость в отеле 'Гостиница Н' за ночь: от 3250₽",82.896921,55.028832
595,595,Апарт-отель Гостиниц net (Большевитская),"улица Большевитская, д.37, Новосибирск","Апарт-отель Гостиниц net (Большевитская) по адресу улица Большевитская, д.37, Новосибирск. Минимальная стоимость в отеле 'Апарт-отель Гостиниц net (Большевитская)' за ночь: от 2724₽",82.932332,55.010504
596,596,Апарт-отель Lucky Jet,"Железнодорожная улица 15/1, офис 29, 3 этаж, Новосибирск","Апарт-отель Lucky Jet по адресу Железнодорожная улица 15/1, офис 29, 3 этаж, Новосибирск. Минимальная стоимость в отеле 'Апарт-отель Lucky Jet' за ночь: от 2400₽",82.904925,55.047028
597,597,Отель Николь,"улица Ядринцевская, д. 72, корп. 2, Новосибирск","Отель Николь по адресу улица Ядринцевская, д. 72, корп. 2, Новосибирск. Минимальная стоимость в отеле 'Отель Николь' за ночь: от 3500₽",82.935027,55.033914
598,598,Отель Marins Park Hotel Novosibirsk,"Вокзальная магистраль, 1, Новосибирск","Отель Marins Park Hotel Novosibirsk по адресу Вокзальная магистраль, 1, Новосибирск. Минимальная стоимость в отеле 'Отель Marins Park Hotel Novosibirsk' за ночь: от 4223₽",82.900577,55.035524
599,599,Отель Гранд Автограф (бывший Марриотт),"улица Орджоникидзе, 31, Новосибирск","Отель Гранд Автограф (бывший Марриотт) по адресу улица Орджоникидзе, 31, Новосибирск. Минимальная стоимость в отеле 'Отель Гранд Автограф (бывший Марриотт)' за ночь: от 10485₽",82.92352,55.031484
600,600,Отель DK,"улица Выборная, д.29, Новосибирск","Отель DK по адресу улица Выборная, д.29, Новосибирск. Минимальная стоимость в отеле 'Отель DK' за ночь: от 2575₽",82.986914,54.991315
601,601,Отель River Park,"Улица Добролюбова, д. 2, Новосибирск","Отель River Park по адресу Улица Добролюбова, д. 2, Новосибирск. Минимальная стоимость в отеле 'Отель River Park' за ночь: от 4200₽",82.943624,55.002676
602,602,Отель Тор,"улица Дуси Ковальчук, д. 410/1, Новосибирск","Отель Тор по адресу улица Дуси Ковальчук, д. 410/1, Новосибирск. Минимальная стоимость в отеле 'Отель Тор' за ночь: от 3245₽",82.932153,55.066746
603,603,Barrakuda na Mendeleeva Hotel,"Mendeleeva 5, Новосибирск","Barrakuda na Mendeleeva Hotel по адресу Mendeleeva 5, Новосибирск. Минимальная стоимость в отеле 'Barrakuda na Mendeleeva Hotel' за ночь: от 4100₽",82.92043,55.030204
604,604,Хостел OVB,"ulitsa ZhKO Aeroport, 25/2 A, Обь","Хостел OVB по адресу ulitsa ZhKO Aeroport, 25/2 A, Обь. Минимальная стоимость в отеле 'Хостел OVB' за ночь: от 2476₽",82.692859,54.995307
